,_name,country,postcode,_type,lat,lng
0,Arendal,Norway,,county,58.4267301,8.9469491
1,Arendal,Norway,4836,city,58.459640799999995,8.7666023
2,Arendal,Sweden,,neighbourhood,57.7068827,11.835206800000002
3,Arendal,Sweden,457 91,village,58.7425345,11.275910099999999
4,Arendal,Norway,1747,farm,59.156559400000006,11.131137400000002
5,Arendal,Norway,4838,railway,58.46503539999999,8.7696417
6,Arendal,United Kingdom,NR9 3NQ,building,52.6162645,1.1955431
7,Argentina,Argentina,,country,-34.9964963,-64.9672817
8,Argentina,Colombia,66440,city,4.9153981,-75.79043829999999
9,Argentina,Colombia,,city,4.915435700000001,-75.7905601
10,Argentina,Colombia,,city,2.1985723,-75.97911540000001
11,Argentina,Colombia,,village,10.3153134,-73.2824943
12,Argentina,Brazil,,village,-3.7819879000000003,-62.396651799999994
13,Argentina,Peru,,village,-15.2776624,-74.2836595
14,Argentina,Ecuador,020201,village,-2.2350434,-79.08997540000001
15,Argentina,Colombia,,village,6.696424400000001,-74.69538759999999
16,Argentina,Colombia,,village,7.1827262,-74.535886
17,Asker,Norway,,county,59.838578399999996,10.4577725
18,Asker,Norway,1384,city,59.8352336,10.432975599999999
19,Asker,Norway,,county,59.5727831,10.524369199999999
20,Asker,Norway,,county,59.734298200000005,10.433893099999999
21,Asker,Sweden,,village,59.1489606,15.474376000000001
22,Asker,Kosovo,20520,road,42.3363285,20.7176707
23,Asker,Norway,1384,station,59.8334885,10.434479699999999
24,Asker,Norway,1384,railway,59.8331039,10.4337129
25,Asker,Norway,1388,railway,59.8330064,10.4339954
26,Aurdal,Norway,2910,village,60.924232700000005,9.4159418
27,Aurdal,Norway,5730,farm,60.581607,6.8874073000000005
28,Aurdal,Norway,5730,bus_stop,60.5815,6.883144000000001
29,Aurdal,Norway,5576,bus_stop,59.55935899999999,5.722217
30,Baku,Azerbaijan,,city,40.3754434,49.8326748
31,Baku,Azerbaijan,,state,40.1468838,49.6564179
32,Baku,Nepal,,city,27.5456392,86.73670820000001
33,Baku,DR Congo,,village,3.4113926,23.817091
34,Baku,RSA,,neighbourhood,-31.885,27.9283333
35,Baku,Spain,20500,village,43.062080200000004,-2.4688428
36,Baku,Russia,,peak,47.1145555,142.5042522
37,Baku,Montenegro,81103,road,42.4436446,19.2366397
38,Baku,Montenegro,81000,road,42.4421261,19.235390399999996
39,Baku,Ecuador,EC060150,road,-1.6814396,-78.6422175
40,Balberg,Norway,2624,village,61.1556321,10.422768300000001
41,Balberg,Norway,,farmyard,60.683001000000004,11.1688258
42,Balberg,Germany,,city,51.6269,6.34961
43,Berg Sanatorium,Bulgaria,8256,bus_stop,42.71152,27.735394300000003
44,Bergen,Norway,,city,60.39430550000001,5.3259192
45,Bergen,USA,,county,40.967834499999995,-74.0563254
46,Bergen,Belgium,,city,50.4549568,3.9519580000000003
47,Bergen,Netherlands,1861JZ,city,52.67022779999999,4.7011616
48,Bergen,Netherlands,,neighbourhood,52.6672571,4.6972235
49,Bergen,Netherlands,,village,51.6060195,6.057671400000001
50,Bergen,Germany,29303,city,52.8073915,9.9627795
51,Bergen,Germany,55608,city,49.7808936,7.417605900000001
52,Bergen,Germany,83346,city,47.806526399999996,12.5897834
53,Bergen,Czechia,69186,city,48.8522201,16.624422699999997
54,Berlin,Germany,10117,city,52.517036499999996,13.388859900000002
55,Berlin,Germany,,city,52.5069348,13.3974827
56,Berlin,USA,03570,city,44.469071,-71.185226
57,Berlin,USA,,city,44.2100759,-72.60340490000002
58,Berlin,USA,06037,city,41.621488,-72.74565190000001
59,Berlin,USA,,city,39.791226200000004,-74.9290536
60,Berlin,USA,01503,city,42.381204,-71.63701209999999
61,Berlin,USA,,city,38.3226154,-75.2176892
62,Berlin,USA,,city,43.9680365,-88.94344770000001
63,Berlin,USA,,city,39.9206363,-78.9578022
64,Bjærget,Denmark,,city,57.10547,8.99315
65,Bodø,Norway,8005,city,67.28394759999999,14.3825834
66,Bodø,Norway,,county,67.3094783,13.915442
67,Bodø,Argentina,,neighbourhood,-34.630251799999996,-58.41879
68,Bodø,Brazil,,city,-5.986610400000001,-36.4134824
69,Bodø,Romania,307006,village,45.8161583,21.885156600000002
70,Bodø,Finland,,city,60.178456000000004,25.451095499999997
71,Bodø,Finland,,city,59.910625,21.760492199999998
72,Bodø,Spain,,river,42.7919955,-4.5722746
73,Bodø,Spain,34480,river,42.7152096,-4.587628400000001
74,Bodø,Spain,34480,river,42.7534557,-4.5733288
75,Bokhara,India,843333,county,26.3588905,85.6512634
76,Bokhara,India,843333,village,26.3655144,85.6602287
77,Bokhara,RSA,,neighbourhood,-27.920288300000003,20.4692339
78,Bokhara,Iran,191773,road,35.7663864,51.4268375
79,Bokhara,Uzbekistan,,city,39.77472,64.42860999999999
80,Bolivia,Bolivia,,country,-17.056869600000002,-64.9912286
81,Bolivia,Venezuela,,city,9.555811,-70.31638520000001
82,Bolivia,USA,,city,34.0676715,-78.14832829999999
83,Bolivia,USA,,village,39.742267600000005,-89.34702990000001
84,Bolivia,Colombia,,village,5.3242753,-75.1136863
85,Bolivia,Colombia,,village,1.3459418,-75.1083788
86,Bolivia,Colombia,,village,1.2872978000000002,-75.6335618
87,Bolivia,Venezuela,5030,village,7.6749974000000005,-72.3619193
88,Bolivia,Cuba,27200,village,21.7641268,-82.7867853
89,Bolivia,Ecuador,,village,-4.656556299999999,-79.0197882
90,Boston,USA,,city,42.3602534,-71.0582912
91,Boston,Philippines,,county,7.911989999999999,126.2629435
92,Boston,United Kingdom,,city,52.97704079999999,-0.023983599999999997
93,Boston,USA,75570,village,33.4415086,-94.4196452
94,Boston,USA,40023,village,38.237292700000005,-85.4352363
95,Boston,USA,23420,village,37.609298700000004,-75.84270959999999
96,Boston,United Kingdom,PE21 8RN,station,52.9781191,-0.0311968
97,Boston,Colombia,,neighbourhood,4.7997644,-75.6964043
98,Boston,USA,15135,village,40.3120141,-79.82310240000001
99,Boston,USA,,village,40.0759005,-82.2270897
100,Breidablik,Norway,5701,farm,60.6110083,6.4209860999999995
101,Breidablik,Belgium,2330,building,51.3947845,4.896503900000001
102,Breidablik,Denmark,7860,building,56.61698199999999,8.728212
103,Breidablik,Norway,,road,60.4660419,6.125592
104,Breidablik,Faroe Islands,100,road,62.0185223,-6.7587494999999995
105,Breidablik,Iceland,,road,65.1479647,-13.6752986
106,Breidablik,Iceland,601,road,65.661046,-18.035397399999997
107,Breidablik,Iceland,545,building,65.8246522,-20.3082349
108,Breidablik,Iceland,,fuel,64.84371329999999,-22.653904
109,Breidablik,Norway,,city,60.816669999999995,9.58333
110,Byen,Norway,7020,village,63.42150329999999,10.3579736
111,Byen,Norway,,village,59.241497200000005,8.2687417
112,Byen,Norway,,village,61.112929599999994,10.4788037
113,Byen,Denmark,9800,artwork,57.4564605,9.994819
114,Byen,Turkey,34080,clothes,41.0229194,28.943661199999998
115,Byen,Norway,,county,58.21705,7.83476
116,Bygdø,Norway,0287,road,59.90715229999999,10.6796457
117,Chicago,USA,,city,41.875561600000005,-87.6244212
118,Chicago,United Kingdom,GU6 8GP,raceway,51.1163375,-0.5411583000000001
119,Chicago,Philippines,,village,13.395999999999999,121.0984
120,Chicago,Belize,,village,17.8149465,-88.3115477
121,Chicago,France,60160,village,49.2638997,2.4282392
122,Chicago,Spain,43870,village,40.6540094,0.7234448
123,Chicago,RSA,7646,neighbourhood,-33.71745,18.996316699999998
124,Chicago,France,97300,neighbourhood,4.9324371,-52.331324
125,Chicago,Canada,,neighbourhood,43.5891995,-79.6489757
126,Chicago,D.R.,2200,neighbourhood,18.4172472,-68.9756563
127,Christiania,Norway,0026,city,59.913330099999996,10.7389701
128,Christiania,Denmark,1441,attraction,55.67576379999999,12.6076351
129,Christiania,Denmark,1440,building,55.674136,12.60351
130,Christiania,Denmark,1441,building,55.681599,12.613446000000001
131,Christiania,Denmark,1440,building,55.68190799999999,12.610925
132,Christiania,Denmark,1440,building,55.67842099999999,12.610914999999999
133,Christiania,Denmark,1440,building,55.675630000000005,12.606176
134,Christiania,Denmark,1432,building,55.6816204,12.613489900000001
135,Christiania,Slovakia,080 01,cafe,48.9991651,21.2390307
136,Christiania,France,74110,building,46.185646999999996,6.696133199999999
137,Danmark,Denmark,,country,55.670249,10.333328300000002
138,Danmark,Sweden,,islet,57.9499378,11.5493103
139,Danmark,Sweden,,islet,57.949967099999995,11.632794800000001
140,Danmark,Norway,,farm,59.641025,11.1505222
141,Danmark,Norway,3268,village,59.0526064,9.9212662
142,Danmark,Norway,3270,farm,59.1104278,10.06325
143,Danmark,Norway,,islet,59.3015944,10.692182699999998
144,Danmark,Norway,,islet,59.0525929,9.9212469
145,Danmark,Denmark,,islet,54.9678836,10.468930499999999
146,Danmark,Sweden,757 56,village,59.8322934,17.744172
147,Doppen,Denmark,9970,road,57.5097998,10.4639569
148,Drammen,Norway,3017,city,59.743674899999995,10.204374900000001
149,Drammen,Norway,,county,59.728058700000005,10.1790465
150,Drammen,Norway,,peak,61.263446900000005,10.9444006
151,Drammen,Norway,,county,59.76333879999999,10.0292002
152,Drammen,Norway,,county,59.6161642,10.3729385
153,Drammen,Norway,3017,station,59.74015670000001,10.203823
154,Drammen,Norway,3044,railway,59.74014720000001,10.2056058
155,Drammen,Norway,8870,viewpoint,65.78988589999999,12.618341000000001
156,Drammen,Norway,4515,bay,57.995838899999995,7.4885
157,Drøbak,Norway,,city,59.6633333,10.631111099999998
158,Drøbak,Norway,1440,city,59.6633194,10.629738900000001
159,Drøbak,Norway,1440,information,59.6631226,10.6332795
160,Drøbak,Norway,1443,marina,59.6774873,10.6199031
161,Drøbak,Norway,1443,ferry_terminal,59.67013000000001,10.622872300000001
162,Drøbak,Norway,1440,ferry_terminal,59.660984400000004,10.627730999999999
163,Dubrovnik,Croatia,20000,city,42.6499651,18.093652
164,Dubrovnik,Montenegro,,peak,43.163188299999995,18.9667733
165,Dubrovnik,Bulgaria,9000,road,43.222438000000004,27.9249224
166,Dubrovnik,Chile,9010290,road,-33.42664310000001,-70.7410327
167,Dubrovnik,Poland,61-835,restaurant,52.4076676,16.9329982
168,Dubrovnik,Croatia,20107,ferry_terminal,42.657877299999996,18.085718
169,Dubrovnik,Bulgaria,9000,supermarket,43.2210178,27.924813099999998
170,Dubrovnik,Germany,21073,restaurant,53.4602157,9.979803599999999
171,Dubrovnik,Germany,45355,restaurant,51.4740261,6.951380599999999
172,Dubrovnik,Germany,22119,restaurant,53.5488986,10.1087362
173,Egersund,Norway,4370,city,58.4518952,5.999996299999999
174,Egersund,Norway,4370,station,58.461243,6.0019004
175,Egersund,Norway,4370,railway,58.461351,6.0023805
176,Elverum,Norway,,county,60.9728025,11.7344421
177,Elverum,Norway,2408,city,60.88296329999999,11.560238400000001
178,Elverum,Norway,,village,69.059986,19.510935500000002
179,Elverum,Norway,5462,farm,59.9128389,5.7933889
180,Elverum,Norway,1870,farm,59.4932694,11.695169400000001
181,Elverum,Norway,3089,village,59.513402799999994,10.2110722
182,Elverum,Norway,,farmyard,59.7665707,11.1239793
183,Elverum,Norway,2406,railway,60.8829542,11.5460413
184,Elverum,Norway,9300,road,69.2347697,18.0169551
185,Elverum,Norway,,road,69.02123990000001,18.803774899999997
186,England,United Kingdom,,state,52.795479099999994,-0.5402403
187,England,Sweden,,county,59.0744958,16.3221178
188,England,USA,,village,40.8403347,-82.2393255
189,England,Germany,84434,village,48.427056,12.0611888
190,England,USA,,village,35.884530299999994,-94.6680018
191,England,USA,,city,34.5442609,-91.96902850000001
192,England,Germany,52080,village,50.7711984,6.1824957000000005
193,England,Norway,1349,farm,59.9187944,10.4629806
194,England,Norway,1407,village,59.727991700000004,10.724927800000001
195,England,Norway,3891,village,59.5201583,8.194616700000001
196,Equador,Ecuador,,country,-1.3397668,-79.3666965
197,Equador,DR Congo,,state,0.06196,19.1407767
198,Equador,Brazil,,village,-6.8907136,-36.6644722
199,Equador,Brazil,,city,-6.944482400000001,-36.7177572
200,Equador,Brazil,68906129,village,0.0019338,-51.122151
201,Equador,Brazil,,village,1.0984450000000001,-50.044151
202,Equador,Brazil,,village,-0.154309,-60.696086
203,Equador,USA,89030,road,36.2192051,-115.10993400000001
204,Equador,Argentina,N3334,road,-26.816683,-54.960375600000006
205,Equador,Brazil,20220-410,railway,-22.8978837,-43.2047579
206,Europa,,,unknown,51.0,10.0
207,Europa,France,,county,-22.3673163,40.346378200000004
208,Europa,Colombia,,city,9.4946388,-75.2872389
209,Europa,USA,63876,village,36.090068,-90.1775963
210,Europa,Lithuania,,village,54.8652568,24.903792000000003
211,Europa,Brazil,,village,-7.676467999999999,-69.16068100000001
212,Europa,Brazil,,village,-7.502350999999999,-73.012287
213,Europa,Colombia,,village,9.671037,-74.4279822
214,Europa,Cuba,,village,22.7356201,-82.6087051
215,Europa,Italy,,city,45.615629999999996,10.081760000000001
216,Finland,Finland,,country,63.2467777,25.9209164
217,Finland,USA,18970,village,40.3842677,-75.4193454
218,Finland,USA,24042,village,33.365988,-81.0931547
219,Finland,USA,55603,village,47.414636200000004,-91.2490485
220,Finland,United Arab Emirates,,islet,25.2325734,55.1598522
221,Finland,Norway,1816,farm,59.47262779999999,11.1622972
222,Finland,Norway,2233,village,59.9535821,11.9727892
223,Finland,Sweden,,village,58.451269499999995,16.4864874
224,Finland,Sweden,,islet,59.740754599999995,12.710647300000002
225,Finland,Norway,1911,village,59.8125924,11.111375500000001
226,Fjell,Norway,,county,60.357891,4.8087945
227,Fjell,Norway,,village,67.1807833,14.485939800000002
228,Fjell,Norway,1550,village,59.5619583,10.77715
229,Fjell,Norway,1404,village,59.7917863,10.9530215
230,Fjell,Norway,,village,59.142391700000005,11.634175
231,Fjell,Norway,3034,neighbourhood,59.7188164,10.221389
232,Fjell,Norway,,farm,59.1511559,11.4296148
233,Fjell,Norway,1791,farm,59.1508,11.429175
234,Fjell,Norway,,farm,59.199175,11.424125
235,Fjell,Norway,1765,farm,59.036513899999996,11.4406444
236,Frankrike,France,,country,46.603353999999996,1.8883334999999999
237,Frankrike,France,,state,46.603353999999996,1.8883334999999999
238,Frankrike,Sweden,75597,village,59.878730299999994,17.8097767
239,Frankrike,Sweden,,farm,61.939758,16.9824549
240,Frankrike,Norway,,village,59.453275,8.361636099999998
241,Frankrike,Sweden,33153,building,57.1853039,14.020677300000001
242,Frankrike,Norway,3967,bus_stop,58.961951,9.558561
243,Frankrike,Sweden,,city,63.71666999999999,13.516670000000001
244,Gaden,Germany,93326,village,48.8076622,11.8659413
245,Gaden,Germany,83329,village,47.9347618,12.7543577
246,Gaden,Germany,85290,village,48.6832891,11.630792199999998
247,Gaden,Germany,85416,village,48.408935,11.872551800000002
248,Gaden,Germany,84094,village,48.6908231,11.8771594
249,Gaden,Indonesia,,village,-7.7427902,110.6708301
250,Gaden,Switzerland,9621,village,47.3508939,9.106481599999999
251,Gaden,Denmark,1429,road,55.67359520000001,12.5996215
252,Gaden,Germany,83329,neighbourhood,47.934836499999996,12.753508199999999
253,Gaden,Germany,93326,road,48.8078737,11.868300999999999
254,Gjøvik,Norway,,county,60.87216170000001,10.5038864
255,Gjøvik,Norway,2815,city,60.7904113,10.6899329
256,Gjøvik,Norway,2815,station,60.79700749999999,10.694541300000001
257,Gjøvik,Norway,2815,building,60.7971572,10.6943571
258,Gjøvik,Norway,2815,ferry_terminal,60.7979336,10.6999906
259,Grand Hotel,Libya,021,hotel,32.8930837,13.184728699999999
260,Grand Hotel,USA,49757,hotel,45.8510193,-84.6261613
261,Grand Hotel,United Kingdom,YO11 2ET,hotel,54.280477399999995,-0.39779770000000003
262,Grand Hotel,Norway,0159,hotel,59.9138017,10.739527
263,Grand Hotel,Sweden,111 48,hotel,59.329631400000004,18.0754875
264,Grand Hotel,France,45260,village,47.8895537,2.4474703
265,Grand Hotel,France,45230,village,47.799994299999994,2.9280644000000002
266,Grand Hotel,France,59240,building,51.048038899999995,2.3826379
267,Grand Hotel,USA,10001,building,40.747152500000006,-73.9878037
268,Grimstad,Norway,,county,58.2839967,8.7128291
269,Grimstad,Norway,4876,city,58.339907999999994,8.5911966
270,Grimstad,Norway,8145,village,66.94496099999999,13.722585999999998
271,Grimstad,Norway,,village,59.361075,10.8096
272,Grimstad,Norway,6674,village,63.0501422,8.0349428
273,Grimstad,Norway,5869,farm,60.319616700000005,5.2299
274,Grimstad,Norway,,farm,60.4876,10.4455
275,Grimstad,Norway,,farm,59.383527799999996,11.2909972
276,Grimstad,Norway,1655,farm,59.20605,11.048713900000001
277,Grimstad,Norway,1655,farm,59.21075,11.053925
278,Grønland,Greenland,,country,77.61923490000001,-42.8125967
279,Grønland,Norway,0188,neighbourhood,59.912138899999995,10.7614924
280,Grønland,Norway,4900,village,58.60691,8.955891699999999
281,Grønland,Norway,,village,66.698942,13.520878
282,Grønland,Norway,,village,59.903492500000006,10.397412
283,Grønland,Norway,,village,59.903402799999995,10.3974111
284,Grønland,Norway,,farm,59.304325,9.6459278
285,Grønland,Norway,3760,farm,58.918336100000005,9.15075
286,Grønland,Norway,3731,village,59.21249720000001,9.53575
287,Grønland,Norway,,village,58.9817333,9.232916699999999
288,Hamarøy,Norway,,county,67.89099559999998,15.8881705
289,Hamarøy,Norway,,county,67.98087199999999,16.512348
290,Hamarøy,Norway,,village,68.08441020000001,15.641507
291,Hamsund,Norway,8290,bus_stop,68.101524,15.520473999999998
292,Hamsund,Norway,6280,ferry_terminal,62.5343517,6.2676202000000005
293,Hamsund,Norway,,city,68.10282,15.51958
294,Hannover,Germany,,city,52.374477899999995,9.738553199999998
295,Hannover,USA,,neighbourhood,39.3914968,-77.4456998
296,Hannover,USA,,village,47.1113877,-101.4265402
297,Hannover,Germany,27804,village,53.174469900000005,8.506839300000001
298,Hannover,Chile,1020759,road,-18.4749342,-70.2973087
299,Hannover,Chile,5310847,road,-40.5700894,-73.10803759999999
300,Hannover,Chile,7750000,road,-33.4517574,-70.57484559999999
301,Hannover,Chile,4650000,road,-37.8095024,-72.69568840000001
302,Hannover,Philippines,1718,road,14.459904500000002,121.0043042
303,Hannover,Chile,4600770,road,-36.7950706,-73.1024186
304,Harrow,United Kingdom,,city,51.5967688,-0.3372752
305,Harrow,United Kingdom,HA1 1LG,city,51.581091,-0.337475
306,Harrow,Ireland,,village,52.564245299999996,-6.4445063
307,Harrow,Australia,,neighbourhood,-37.2063,141.346781
308,Harrow,Australia,,village,-37.1654534,141.5922439
309,Harrow,United Kingdom,KW14 8XH,village,58.6493988,-3.2403439
310,Harrow,USA,18942,village,40.4912136,-75.1743405
311,Harrow,Somalia,,village,3.6016,43.572399
312,Harrow,Canada,N0R 1G0,city,42.035586,-82.9183594
313,Havet,Sweden,,village,57.915942,16.1891269
314,Havet,France,65130,village,43.082451299999995,0.22184720000000002
315,Havet,Sweden,,neighbourhood,58.6064522,16.2589633
316,Havet,Norway,3277,village,59.32985279999999,9.888416699999999
317,Havet,Norway,,village,59.2077583,9.240191699999999
318,Havet,Norway,,farm,59.2379194,9.4706722
319,Havet,Norway,,farm,58.83729720000001,9.2876167
320,Havet,Norway,,farm,59.426286100000006,10.1148055
321,Havet,Norway,,farm,58.677880200000004,9.072414
322,Havet,Norway,4957,farm,58.683181999999995,9.143924499999999
323,Heia,Norway,,county,58.9580817,10.873282199999998
324,Heia,Norway,,peak,68.2649557,13.9152834
325,Heia,Norway,6292,peak,62.6231953,6.159004400000001
326,Heia,Norway,1960,village,59.7712632,11.460605699999999
327,Heia,Norway,,village,69.14231140000001,19.0543707
328,Heia,Norway,,village,66.472114,13.499622
329,Heia,Norway,,village,66.64608100000001,13.308094
330,Heia,Norway,1435,farm,59.640538899999996,10.833336099999999
331,Heia,Norway,1580,village,59.349483299999996,10.775969400000001
332,Heia,Norway,,farm,59.493075,11.212472199999999
333,Helsingfors,Finland,,city,60.1674098,24.9425769
334,Helsingfors,Sweden,92137,village,64.5538315,18.6988667
335,Helsingfors,Finland,00100,station,60.17125479999999,24.9414391
336,Helsingfors,Sweden,92137,bus_stop,64.55646709999999,18.6946074
337,Hornbæk,Denmark,3100,village,56.0879176,12.4587803
338,Hornbæk,Denmark,3100,station,56.089141000000005,12.459758099999998
339,Hørup,Germany,,city,54.74474870000001,9.1033911
340,Hørup,Denmark,7300,village,55.760856000000004,9.4675172
341,Hørup,Denmark,,village,54.913698100000005,9.8956435
342,Hørup,Denmark,,village,55.85285079999999,12.133689500000001
343,Hørup,Sweden,276 35,village,55.44371139999999,14.1213546
344,Hørup,Sweden,276 35,bus_stop,55.443135,14.120370499999998
345,Indien,India,,country,22.3511148,78.6677428
346,Indien,Myanmar,,village,15.3458196,97.7510033
347,Indien,United Arab Emirates,,islet,25.2311711,55.1797134
348,Indien,Switzerland,5408,restaurant,47.4787946,8.3137524
349,Indien,Denmark,,road,56.7231885,11.622757
350,Jerusalem,Israel,,city,31.778345,35.2250786
351,Jerusalem,RSA,,city,-25.1972222,31.113888899999996
352,Jerusalem,USA,20839,village,39.1592724,-77.4060975
353,Jerusalem,USA,21047\,village,39.4628854,-76.3891275
354,Jerusalem,USA,21773,village,39.524266600000004,-77.57998909999999
355,Jerusalem,USA,,village,35.2434119,-86.78444470000001
356,Jerusalem,USA,,village,34.7050897,-87.2269623
357,Jerusalem,USA,,village,34.44175739999999,-84.58215290000001
358,Jerusalem,USA,30055,village,33.5201187,-83.74128909999999
359,Jorden,USA,77077:77084,road,29.7862527,-95.6320679
360,Jorden,Denmark,8700,artwork,55.8501304,9.8490514
361,Jorden,Denmark,7620,information,56.5505275,8.298817
362,Jorden,Germany,48565,building,52.124588,7.394761900000001
363,Jorden,Sweden,532 72,water,58.39097339999999,13.5814426
364,Jorden,Estonia,,city,59.064719999999994,24.95028
365,Kanada,Canada,,country,61.0666922,-107.9917071
366,Kanada,Czechia,73961,stream,49.6751788,18.641367199999998
367,Kanada,Poland,,village,51.396507299999996,19.415438199999997
368,Kanada,Japan,825-0016,station,33.6831864,130.7759265
369,Kanada,Germany,07589,village,50.834587,11.957208900000001
370,Kanada,Poland,,village,52.403611100000006,18.9413889
371,Kanada,Poland,,village,51.7780556,17.1977778
372,Kanada,Poland,33-114,village,49.957182,20.949534
373,Kanada,Poland,34-108,village,49.92805560000001,19.431388899999998
374,Kanada,Poland,32-855,village,49.896111100000006,20.7827778
375,Karl Johan,Norway,2312,road,60.7408056,11.153842
376,Karl Johan,Norway,,road,57.9852882,7.5319303
377,Karl Johan,Norway,9296,road,69.64724659999999,18.9509507
378,Karl Johan,Norway,,neighbourhood,60.212807999999995,8.101911
379,Karl Johan,Norway,,county,69.93446,23.02222
380,Kentucky,USA,,state,37.5726028,-85.1551411
381,Kentucky,USA,61955,village,39.5933684,-87.6111352
382,Kentucky,USA,,village,46.2652316,-86.6309875
383,Kentucky,USA,,village,34.608425399999994,-92.66127490000001
384,Kentucky,Australia,,farm,-27.9734147,149.34931469999998
385,Kentucky,Australia,2354,neighbourhood,-30.7589126,151.45094369999998
386,Kentucky,Argentina,S2132,neighbourhood,-32.9433852,-60.8279882
387,Kentucky,Canada,,neighbourhood,49.1198625,-122.748272
388,Kentucky,USA,32046,road,30.692808000000003,-81.93706
389,Kentucky,USA,32839,road,28.5102239,-81.39688249999999
390,Kongsberg,Norway,,county,59.594550100000006,9.670860099999999
391,Kongsberg,Norway,3613,city,59.6693196,9.6515097
392,Kongsberg,USA,,village,47.851392700000005,-100.8012554
393,Kongsberg,Sweden,74010,village,59.875183299999996,18.048078
394,Kongsberg,Norway,,village,59.0465556,8.1100444
395,Kongsberg,Norway,,farm,59.27966850000001,10.858312199999999
396,Kongsberg,Norway,1860,farm,59.6614583,11.335666699999999
397,Kongsberg,Norway,1623,farm,59.2757556,10.8624222
398,Kongsberg,Norway,3617,road,59.6717428,9.638797
399,Kongsberg,United Kingdom,WF6 1TN,building,53.7050874,-1.3916128
400,Kristiansund,Norway,,county,63.2168194,7.545259
401,Kristiansund,Norway,6509,city,63.115064600000004,7.733289900000001
402,Kristiansund,Norway,6516,artwork,63.11253860000001,7.7483609
403,Kristiansund,Norway,6509,ferry_terminal,63.1114795,7.733655099999999
404,Kristiansund,Norway,6509,ferry_terminal,63.1147963,7.736805199999999
405,Kystby,Norway,5353,building,60.3586666,5.1277872
406,København,Denmark,1357,city,55.6867243,12.5700724
407,København,Denmark,2399,information,55.63116170000001,12.5748147
408,København,Sweden,,road,56.37891460000001,13.102668199999998
409,Larvik,Norway,,county,59.096730799999996,10.021930000000001
410,Larvik,Norway,3256,city,59.053173,10.027182
411,Larvik,Netherlands,4791DD,road,51.6651966,4.5411630999999995
412,Larvik,Germany,01069,clothes,51.0440684,13.736438399999999
413,Larvik,Norway,3256,station,59.050149100000006,10.0313875
414,Larvik,Norway,3256,railway,59.0499113,10.0315909
415,Larvik,Norway,3263,ferry_terminal,59.0416058,10.0447658
416,Levanger,Norway,,county,63.69645179999999,11.2238804
417,Levanger,Norway,7600,city,63.74620329999999,11.2998629
418,Levanger,Norway,7600,railway,63.7447218,11.300685699999999
419,Levanger,Netherlands,4141MV,road,51.8890013,5.099548
420,Levanger,Montenegro,85347,restaurant,42.4588391,18.515489300000002
421,Lillehammer,Norway,,county,61.13334079999999,10.4265855
422,Lillehammer,Norway,2609,city,61.114537899999995,10.4671034
423,Lillehammer,Norway,2615,railway,61.1142507,10.4612694
424,Lillehammer,Netherlands,4791DC,road,51.6650611,4.5400823
425,Lillehammer,USA,98117,building,47.680253,-122.3764304
426,Lillehammer,France,72460,building,48.079584499999996,0.29215820000000003
427,Lillehammer,Norway,2615,ferry_terminal,61.1027647,10.4432575
428,Lillesand,Norway,,county,58.116112300000005,8.440325699999999
429,Lillesand,Norway,4790,city,58.247994299999995,8.3775716
430,Lillesand,Sweden,45894,village,58.5911618,12.091352800000001
431,Lillesand,Norway,3855,village,59.007475,8.5874305
432,Lillesand,Norway,3296,village,58.9634389,9.853666699999998
433,Lillesand,Norway,1680,road,59.0242,11.0339414
434,Lillesand,Norway,4870,beach,58.376828700000004,8.695998300000001
435,Lofoten,Netherlands,3524EN,road,52.061457700000005,5.1311668
436,Lofoten,Netherlands,3524EP,road,52.06052929999999,5.130646499999999
437,Lofoten,Netherlands,3524EZ,road,52.0602539,5.1303943
438,Lofoten,Netherlands,3825ZD,road,52.18937639999999,5.4201888
439,Lofoten,Netherlands,2721JE,road,52.05348,4.5453639
440,Lofoten,Denmark,8200,road,56.1766728,10.1927024
441,Lofoten,Netherlands,2904VH,road,51.9314126,4.608492900000001
442,Lofoten,Netherlands,2904VM,road,51.9317185,4.6095999
443,Lofoten,Netherlands,8303NA,road,52.715055299999996,5.7349752
444,Lofoten,Norway,,county,68.47111,13.863610000000001
445,Marken,Italy,,state,43.345838799999996,13.1415872
446,Marken,Netherlands,1156,village,52.457874600000004,5.1068263
447,Marken,Norway,8150,village,66.907883,13.7102478
448,Marken,Finland,,village,63.4449249,22.8560693
449,Marken,France,67310,village,48.5919586,7.448869900000001
450,Marken,Netherlands,,neighbourhood,52.44161,5.120732599999999
451,Marken,Sweden,57013,village,57.41335229999999,14.9862231
452,Marken,Sweden,,village,60.3426437,15.6336073
453,Marken,Sweden,,village,57.395390299999995,14.5490168
454,Marken,RSA,,neighbourhood,-23.5888889,28.3852778
455,Mexico,Mexico,06060,city,19.4326009,-99.1333416
456,Mexico,Mexico,,country,22.5000485,-100.0000375
457,Mexico,Mexico,,state,19.4839446,-99.68997159999999
458,Mexico,USA,65265,city,39.1697626,-91.8829484
459,Mexico,USA,13114,city,43.459514,-76.228818
460,Mexico,USA,,city,44.56112,-70.545959
461,Mexico,Philippines,2015,city,15.064350899999999,120.72054399999999
462,Mexico,USA,26767,village,39.6036999,-78.7427956
463,Mexico,USA,29731,village,34.9379234,-81.0048005
464,Mexico,Austria,3872,village,48.8402465,15.0448654
465,Minesota,USA,,state,45.98965870000001,-94.6113288
466,Minesota,Brazil,13179-180,neighbourhood,-22.8147401,-47.1760678
467,Minesota,Mexico,66460,road,25.7458952,-100.28152340000001
468,Minesota,Cuba,,city,22.5,-80.66667
469,Minneapolis,USA,,city,44.970670500000004,-93.2682241
470,Minneapolis,USA,55415:55454,city,44.9772995,-93.2654692
471,Minneapolis,USA,,city,39.121945000000004,-97.706703
472,Minneapolis,USA,28652,village,36.099368299999995,-81.98734909999999
473,Minneapolis,USA,49642,road,43.876428999999995,-85.798051
474,Minneapolis,Mexico,31205,road,28.626321899999997,-106.10020290000001
475,Minneapolis,USA,58103-3400,road,46.84599179999999,-96.81984179999999
476,Minneapolis,USA,58104,road,46.8469249,-96.8598542
477,Minneapolis,USA,58109,road,46.848468,-96.796164
478,Montana,USA,,state,47.3752671,-109.63875790000002
479,Montana,Bulgaria,3400,city,43.4088984,23.2203193
480,Montana,Bulgaria,,county,43.44608,23.202530399999997
481,Montana,Bulgaria,,state,43.479324,23.116235699999997
482,Montana,Italy,33041,stream,45.869880200000004,13.3468381
483,Montana,Tajikistan,735820,peak,40.1417685,69.549029
484,Montana,USA,,village,62.079722200000006,-150.0727778
485,Montana,USA,,village,37.275339200000005,-95.1241339
486,Montana,USA,08808,village,40.7650986,-75.06739590000001
487,Montana,USA,,village,35.4250847,-93.5449095
488,Moskva,Russia,,city,55.7504461,37.6174943
489,Moskva,Russia,,state,55.479204599999996,37.3273304
490,Moskva,Russia,143059,river,55.7098009,37.0536908
491,Moskva,Russia,140230,river,55.4033937,38.5070172
492,Moskva,Russia,109649,river,55.609521799999996,37.8089581
493,Moskva,Russia,107140,station,55.778404099999996,37.6567616
494,Moskva,Russia,105066,station,55.774247499999994,37.659914
495,Moskva,Tajikistan,735330,village,37.842331099999996,69.68817320000001
496,Moskva,Russia,143271,stream,55.5116884,35.389790999999995
497,Moskva,Tajikistan,,stream,39.129236299999995,68.14690590000001
498,Myren,USA,,village,46.426067100000004,-86.42738309999999
499,Myren,Sweden,456 55,village,58.3453346,11.3252894
500,Myren,Sweden,,village,61.057203599999994,14.4871976
501,Myren,Norway,4658,village,58.25465,8.162963900000001
502,Myren,Norway,4613,farm,58.1328639,7.969547200000001
503,Myren,Norway,5237,village,60.2949537,5.3037295
504,Myren,Norway,5174,farm,60.342972200000006,5.187175
505,Myren,Sweden,76323,village,60.039747899999995,18.566476100000003
506,Myren,Norway,,village,65.7710211,12.4513905
507,Myren,Sweden,442 73,village,57.828656499999994,11.7256415
508,Natal,Brazil,,city,-5.805398,-35.208090500000004
509,Natal,USA,,village,36.986807299999995,-79.2672444
510,Natal,Indonesia,,city,0.5566449,99.1134353
511,Natal,Brazil,,village,-2.4570247000000003,-48.7414531
512,Natal,Brazil,,village,-6.663316,-55.493205
513,Natal,Brazil,,village,-5.8825703,-48.15861829999999
514,Natal,Brazil,,village,-7.004119,-71.4932747
515,Natal,Brazil,,village,-2.704085,-66.68222829999999
516,Natal,Brazil,,village,1.2461105,-49.990976700000004
517,Natal,South Africa,,state,-29.0,30.0
518,Nationen,USA,,neighbourhood,40.750261,-73.96719499999999
519,Nationen,Germany,53113,road,50.7188472,7.1251720999999995
520,Nationen,Germany,09111,university,50.8391669,12.9282994
521,Nationen,USA,10017,attraction,40.7496292,-73.96739000000001
522,Nationen,Switzerland,1202,building,46.2205388,6.1411153
523,Nationen,Switzerland,1209,building,46.22818839999999,6.141939900000001
524,Nationen,Germany,53113,university,50.7182847,7.1275688
525,Nationen,Ethiopia,,state,6.4536525000000005,36.660563700000004
526,Nationen,Sweden,227 33,building,55.7085819,13.1698227
527,Nationen,Cyprus,,road,35.0948495,32.928984
528,New England,USA,,county,44.204820899999994,-70.7553862
529,New England,United Kingdom,PE1 3DT,neighbourhood,52.5934191,-0.24919850000000002
530,New England,United Kingdom,EH30 9TQ,peak,55.990095,-3.3422623999999996
531,New England,United Kingdom,CO9 4BD,village,52.0559575,0.4918938
532,New England,USA,15133:15236,village,40.3347918,-79.92699449999999
533,New England,USA,18252,village,40.7825463,-75.9756066
534,New England,USA,44646,village,40.797073,-81.5001575
535,New England,USA,45778,village,39.333962799999995,-81.9409724
536,New England,USA,30752,village,34.910354999999996,-85.48024000000001
537,New England,USA,26578,village,39.4614743,-80.1706355
538,New York,USA,,state_district,40.7127281,-74.0060152
539,New York,USA,,state,43.1561681,-75.84499459999999
540,New York,United Kingdom,NE29 8EP,village,55.0252998,-1.4869496000000002
541,New York,USA,,village,30.838520199999998,-87.2008048
542,New York,USA,,village,39.6852874,-93.9268836
543,New York,USA,50165,village,40.8516701,-93.2599318
544,New York,USA,42053:42056:42087,village,36.9889428,-88.9525629
545,New York,USA,87007,village,35.0586534,-107.5272717
546,New York,Colombia,,village,2.1698657000000003,-72.165547
547,New York,Peru,,village,-6.1855023000000005,-75.18017859999999
548,Norden,Germany,26506,city,53.5942039,7.2067435
549,Norden,Brazil,,state,-4.2112672,-58.6507168
550,Norden,USA,95724,village,39.3178273,-120.3572125
551,Norden,USA,69220,village,42.8675434,-100.0744848
552,Norden,USA,72313,village,35.55424779999999,-90.1342595
553,Norden,United Kingdom,OL11 5SU,village,53.625925699999996,-2.2144188
554,Norden,Sweden,,neighbourhood,66.03336589999999,19.9963045
555,Norden,Norway,4634,farm,58.2308167,8.0228
556,Norden,Sudan,,state,19.0,30.0
557,Norden,Netherlands,,neighbourhood,52.5673407,6.606950599999999
558,Nordland,Norway,,state,67.27564050000001,13.8623606
559,Nordland,Germany,26571,county,53.641467799999994,6.9624413
560,Nordland,USA,98339,village,48.0509255,-122.69099609999999
561,Nordland,Norway,8063,village,67.6936003,12.7084317
562,Nordland,Denmark,1614,place_of_worship,55.6730466,12.5584903
563,Nordland,Hungary,9028,building,47.6634971,17.669095499999997
564,Nordland,Norway,8005,building,67.2804455,14.376351300000001
565,Nordland,Germany,24369,road,54.49100000000001,9.96583
566,Nordland,Germany,20537,building,53.544818400000004,10.0496105
567,Nordland,Germany,26465,building,53.74683050000001,7.489802
568,Norge,Norway,7810,administrative,64.5731537,11.5280364
569,Norge,Norway,,country,60.5000209,9.099971499999999
570,Norge,USA,,city,34.9883989,-97.9969886
571,Norge,Italy,66,village,46.049495799999995,11.0670824
572,Norge,USA,23127,village,37.3687575,-76.7705153
573,Norge,Sweden,,village,59.083216799999995,15.629934599999999
574,Norge,Sweden,,neighbourhood,59.405936200000006,14.6989161
575,Norge,Turkey,,city,40.4143041,40.7729619
576,Norge,France,44300,dry_cleaning,47.236379799999995,-1.5405265
577,Norge,Germany,51379,dry_cleaning,51.066912200000004,7.0016443
578,Nuten,Norway,,village,60.17840279999999,6.383969400000001
579,Nuten,Norway,5499,village,59.7801306,6.0820083
580,Nuten,Norway,,village,59.6101,8.592052800000001
581,Nuten,Norway,,village,59.8712694,8.542616699999998
582,Nuten,Norway,3652,village,59.8832694,9.032233300000001
583,Nuten,Norway,,village,59.9077361,8.948438900000001
584,Nuten,Norway,,village,59.84250279999999,8.3244306
585,Nuten,Norway,,village,59.5899333,8.4493278
586,Nuten,Norway,,village,59.891797200000006,8.9537444
587,Nuten,Norway,,village,59.43707220000001,8.717063900000001
588,Nørholmen,Norway,4887,village,58.3035103,8.512619500000001
589,Nørholmen,Norway,,county,63.338917,8.2718
590,Nørholmen,Norway,4887,bus_stop,58.302653,8.513508
591,Nørholmen,Norway,,county,63.3333,8.236260000000001
592,Ostende,Belgium,8400,city,51.2258565,2.919496
593,Ostende,Germany,,village,53.7521726,7.611249000000001
594,Ostende,Switzerland,1545,village,46.8999545,6.927556699999999
595,Ostende,Argentina,7167,village,-37.1249787,-56.8835152
596,Ostende,Belgium,,county,51.184683899999996,2.9226367000000004
597,Ostende,Argentina,C1419IAD,road,-34.6193054,-58.527380799999996
598,Ostende,Germany,04288,road,51.285903499999996,12.467849099999999
599,Ostende,Germany,22045,road,53.5856871,10.114627
600,Ostende,Germany,27386,road,53.08926820000001,9.538178
601,Paris,France,,city,48.856696899999996,2.3514616000000004
602,Paris,USA,72855,city,35.2920325,-93.7299173
603,Paris,USA,75460,city,33.661796200000005,-95.555513
604,Paris,USA,,city,38.2097987,-84.25298690000001
605,Paris,USA,89158,bus_stop,36.112001899999996,-115.17266090000001
606,Paris,Canada,N3L 2M3,city,43.193234000000004,-80.384281
607,Paris,Canada,,city,63.81289889999999,-138.6484861
608,Paris,USA,65275,city,39.4808721,-92.0012811
609,Pjatigorsk,Russia,,city,44.039775,43.0706669
610,Polden,Denmark,9800,road,57.458411100000006,9.9947595
611,Polden,United Kingdom,BA2 7PS,building,51.38053060000001,-2.3317889
612,Polden,Norway,5423,bus_stop,59.86646700000001,5.1018989999999995
613,Polden,United Kingdom,BA2 7PS,cafe,51.3804284,-2.3323529
614,Polden,Russia,432000,bar,54.3180754,48.398795299999996
615,Polden,Russia,,city,51.206109999999995,42.909440000000004
616,Roma,Italy,,city,41.894802,12.4853384
617,Roma,Italy,,county,41.8523336,12.630854199999998
618,Roma,Italy,00015,stream,42.061443,12.568262800000001
619,Roma,Mexico,,stream,30.952367499999998,-106.4388115
620,Roma,Argentina,S3000,neighbourhood,-31.642912,-60.7255422
621,Roma,Mexico,,neighbourhood,25.447515799999998,-101.02169599999999
622,Roma,Australia,4455,city,-26.5674,148.78751
623,Roma,Lesotho,,city,-29.4534907,27.7137542
624,Roma,USA,,city,26.4070669,-99.00554620000001
625,Roma,USA,94240,village,38.1429743,-121.23827990000001
626,Rosengård,Sweden,212 29,neighbourhood,55.5872507,13.046909199999998
627,Rosengård,Sweden,294 71,farm,56.0660946,14.657581799999999
628,Rosengård,Canada,,neighbourhood,49.465920200000006,-96.7924542
629,Rosengård,Sweden,21440,station,55.5891489,13.030877499999999
630,Rosengård,Sweden,213 61,bus_stop,55.5875659,13.0398224
631,Rosengård,Sweden,213 61,bus_stop,55.588125899999994,13.039712800000002
632,Rosengård,Finland,22410,road,60.2315824,19.987422
633,Rosengård,Denmark,9900,building,57.393848999999996,10.493013000000001
634,Rosengård,Denmark,6270,building,54.951081,8.811542999999999
635,Rosengård,Denmark,7080,building,55.6076955,9.6367961
636,Rusland,Russia,,country,64.6863136,97.7453061
637,Rusland,United Kingdom,LA12 8JS,village,54.2910835,-3.015444
638,Rusland,Norway,,village,59.216625,8.0149806
639,Rusland,Denmark,3120,village,56.0860897,12.4001125
640,Rusland,Netherlands,1012CK,road,52.370172700000005,4.8960264
641,Rusland,Netherlands,1012CL,building,52.3700049,4.896309
642,Rusland,United Kingdom,LA11 7JR,guest_house,54.17509570000001,-2.964819
643,Rådstuen,Denmark,3770,building,55.2889946,14.781182999999999
644,Saba,Malaysia,,state,5.595237,117.00517340000002
645,Saba,Netherlands,,city,17.631703100000003,-63.237773700000005
646,Saba,Japan,,county,35.956509600000004,136.1843593
647,Saba,Honduras,,county,15.480991399999999,-86.1633327
648,Saba,Cameroon,1571,stream,3.9771108999999996,11.4519288
649,Saba,Tanzania,,river,-7.0291091,34.581056700000005
650,Saba,Japan,916-0041,station,35.9435986,136.18893880000002
651,Saba,Indonesia,,village,1.6702858,99.5938391
652,Saba,Philippines,,village,10.895096800000001,124.01475549999999
653,Sagvika,Norway,2879,road,60.8023215,10.2184244
654,Sagvika,Sweden,,sports_centre,64.2728564,15.771774300000002
655,Sagvika,Sweden,833 59,road,64.2729418,15.7720656
656,Sagvika,Norway,,county,61.58859,5.18837
657,Samsø,Denmark,8305,county,55.8835431,10.611431699999999
658,Samsø,Spain,43591,village,40.8786226,0.48639090000000007
659,Samsø,Sweden,,islet,59.3942958,18.0954988
660,Sarpsborg,Norway,,county,59.254955,11.2297811
661,Sarpsborg,Norway,1707,city,59.2838833,11.1097
662,Sarpsborg,Norway,1706,railway,59.286058499999996,11.1181871
663,Sarpsborg,Norway,1725,information,59.27476850000001,11.0920467
664,Sellanraa,Norway,7013,cafe,63.4306015,10.400416400000001
665,Sirilund,Norway,8382,road,68.129242,13.4394845
666,Skogen,Sweden,,peak,58.65169100000001,15.7232105
667,Skogen,Sweden,,village,57.5475447,12.661945
668,Skogen,Sweden,52338,village,57.834151600000006,13.4512782
669,Skogen,Norway,,village,59.03158249999999,9.531706699999999
670,Skogen,Sweden,43854,village,57.6795858,12.4056145
671,Skogen,Sweden,286 33,village,56.301107200000004,13.282469800000001
672,Skogen,Norway,,farm,59.157699699999995,11.459714100000001
673,Skogen,Norway,1791,farm,59.1578,11.46045
674,Skogen,Norway,,farm,58.9116361,11.585677800000001
675,Skogen,Norway,3482,village,59.544582999999996,10.532683
676,Stavanger,Norway,4006,city,58.968042700000005,5.7324722
677,Stavanger,Norway,,county,58.972732400000005,5.7453807999999995
678,Stavanger,Norway,,county,59.2012044,5.8023297
679,Stavanger,Norway,,county,59.11483670000001,5.6491517
680,Stavanger,USA,,village,41.3986432,-88.6139612
681,Stavanger,Netherlands,4791DJ,road,51.6644086,4.5406975
682,Stavanger,Norway,4006,station,58.9665765,5.732215900000001
683,Stavanger,Norway,4010,railway,58.966175799999995,5.7328295
684,Stavanger,Norway,4010,railway,58.9662259,5.733101400000001
685,Stockholm,Sweden,111 29,city,59.3251172,18.0710935
686,Stockholm,Sweden,,county,59.33403320000001,18.027918600000003
687,Stockholm,USA,04783,village,47.042522,-68.139954
688,Stockholm,USA,,village,26.386736199999998,-97.8791656
689,Stockholm,USA,,village,45.036352,-94.2210911
690,Stockholm,USA,,village,41.08954129999999,-74.51710240000001
691,Stockholm,USA,,village,37.2481047,-86.13080620000001
692,Stockholm,Canada,S0A 3Y0,village,50.65745220000001,-102.30260190000001
693,Stockholm,Sweden,,village,60.5640539,14.663435
694,Stockholm,Sweden,54232,village,58.6796925,13.884955499999998
695,Stordalen,Norway,,village,69.4362184,19.557588100000004
696,Stordalen,Sweden,861 25,village,62.5200967,17.2464646
697,Stordalen,Sweden,861 38,village,62.5313157,17.416305899999998
698,Stordalen,Norway,5229,village,60.2706912,5.4415734
699,Stordalen,Norway,5226,village,60.322413,5.412193299999999
700,Stordalen,Norway,5238,village,60.28132420000001,5.3576552
701,Stordalen,Norway,5170,farm,60.3412139,5.2439139
702,Stordalen,Sweden,153 60,village,59.0774779,17.398132699999998
703,Stordalen,Sweden,618 33,farm,58.674327299999995,16.2954175
704,Stordalen,Norway,,village,60.9539562,5.7194556
705,Stortinget,Norway,0026,road,59.9129802,10.7400994
706,Stortinget,Norway,0159,station,59.913565500000004,10.743341800000001
707,Stortinget,Norway,0026,taxi,59.912921499999996,10.741211900000001
708,Stortinget,Norway,0159,subway_entrance,59.9138458,10.7420496
709,Stortinget,Norway,0157,subway_entrance,59.9122865,10.7416769
710,Stortinget,Norway,0159,subway_entrance,59.914264,10.7421884
711,Stortinget,Norway,6891,building,61.0883248,6.5819686
712,Stranden,Norway,5161,farm,60.3745833,5.3113694
713,Stranden,Sweden,45493,village,58.373289,11.450714999999999
714,Stranden,Sweden,475 31,village,57.708604,11.6636099
715,Stranden,Norway,,farm,60.254183,8.868858
716,Stranden,Norway,1640,farm,59.340094400000005,10.847908300000002
717,Stranden,Norway,,farm,58.3104067,7.0580970999999995
718,Stranden,Norway,4624,farm,58.0884407,7.9259034
719,Stranden,Sweden,,farm,59.7844253,12.258680300000002
720,Stranden,Norway,,farm,58.4291361,7.257419400000001
721,Stranden,Norway,0250,road,59.909344700000005,10.7263669
722,Sveits,Switzerland,,country,46.7985624,8.231973599999998
723,Sverige,Sweden,,country,59.67497120000001,14.5208584
724,Sverige,Denmark,,village,55.6978637,9.970446800000001
725,Sverige,Norway,3721,village,59.296113899999995,9.5585944
726,Sverige,Norway,3277,village,59.339325,9.9059472
727,Sverige,Norway,3268,village,59.0517238,9.9232993
728,Sverige,Sweden,,islet,60.4220918,18.637619600000004
729,Sverige,Norway,,islet,59.0516595,9.9235386
730,Sverige,Denmark,,road,56.763298899999995,9.8028383
731,Sverige,Denmark,,road,56.755215299999996,9.7933406
732,Sydamerika,,,unknown,-21.0002179,-61.00065649999999
733,Sydamerika,Sweden,74563,garden,59.6341824,17.061693899999998
734,Sydamerika,,,country_code,-14.60485,-57.65625
735,Syden,Denmark,7100,allotments,55.718066,9.5382464
736,Tiflis,Georgia,0136,city,41.6934591,44.8014495
737,Tiflis,Georgia,,state,41.731883700000004,44.8368763
738,Tiflis,USA,,village,47.0693098,-119.058621
739,Tiflis,Italy,70132,stream,41.1293521,16.7783328
740,Tiflis,Italy,16123,restaurant,44.4051989,8.932528
741,Tiflis,Georgia,0119,restaurant,41.746352,44.7720907
742,Tiflis,Russia,410000,restaurant,51.51848629999999,46.016786700000004
743,Tiflis,Russia,410000,restaurant,51.529296,46.0199982
744,Tiflis,Tajikistan,734000,restaurant,38.5703807,68.79594190000002
745,Tiflis,Ukraine,21000-21499,restaurant,49.23299420000001,28.462731800000004
746,Tromsø,Norway,,county,69.64929690000001,18.9548489
747,Tromsø,Sweden,953 94,beach,65.712138,23.761816699999997
748,Trondhjem,Norway,7011,city,63.4305658,10.3951929
749,Trondhjem,Norway,7011,pub,63.431328500000006,10.3928913
750,Trondhjem,Norway,7013,artwork,63.4271827,10.394749599999999
751,Trondhjem,Norway,7054,building,63.39564420000001,10.5543646
752,Trondhjem,USA,,place_of_worship,45.857457200000006,-97.480375
753,Trondhjem,USA,57037,place_of_worship,43.032771999999994,-97.2344981
754,Trondhjem,USA,,place_of_worship,45.7755158,-96.7453515
755,Trondhjem,USA,,cemetery,45.877851,-97.5021233
756,Trondhjem,Norway,7030,community_centre,63.422482200000005,10.3951571
757,Tyskland,Germany,,country,51.0834196,10.4234469
758,Tyskland,Norway,1340,farm,59.925755599999995,10.4521083
759,Tyskland,Norway,,farm,59.593175,9.766092
760,Tyskland,Sweden,,islet,58.873764,13.248417499999999
761,Tyskland,Sweden,,islet,58.313438,16.9753109
762,Tyskland,Sweden,80324,road,60.67609770000001,17.1346267
763,Ura,Hungary,4763,city,47.8179313,22.6050745
764,Ura,Estonia,86508,river,58.154365000000006,24.7201418
765,Ura,Russia,,river,60.267230299999994,117.11266200000001
766,Ura,Indonesia,,state,-0.415278,130.686667
767,Ura,Norway,,peak,62.95480309999999,9.1960397
768,Ura,Estonia,,neighbourhood,58.5929429,24.2023324
769,Ura,Bhutan,,village,27.4830115,90.9108135
770,Ura,Russia,,river,56.34222,49.5743544
771,Ura,Russia,422032,river,56.390866599999995,49.60259979999999
772,Ura,Russia,422032,river,56.3644626,49.583506799999995
773,Utvær,Norway,,county,61.0587876,4.516918700000001
774,Vangen,Denmark,,village,57.3757214,9.8825938
775,Vangen,Norway,,village,68.53258149999999,14.9882411
776,Vangen,Norway,2670,village,61.73052489999999,9.5518366
777,Vangen,Denmark,4500,village,55.9318936,11.6736617
778,Vangen,Norway,5307,village,60.4623139,5.1977611
779,Vangen,Norway,,farm,59.8181415,11.0006001
780,Vangen,Norway,3855,farm,59.003672200000004,8.59075
781,Vangen,Norway,3738,farm,59.1440556,9.61145
782,Vangen,Norway,,village,62.195628,10.356553
783,Vangen,Norway,,farm,59.8933811,12.097741599999999
784,Verden,Germany,27283,neighbourhood,52.922341,9.228153
785,Verden,USA,73092,city,35.0833963,-98.08782540000001
786,Vestfjorden,Norway,,bay,68.05,14.766666699999998
787,Vestfjorden,Norway,8097,bay,67.56363940000001,13.487581699999998
788,Vestfjorden,Norway,3477,bay,59.714989,10.531728
789,Vestfjorden,Norway,1580,bay,59.4137955,10.745867599999999
790,Vestfjorden,Norway,,water,58.76993149999999,8.709986500000001
791,Vestfjorden,Norway,,state,71.13333,25.866670000000003
792,Vælta,Greece,63077,city,40.048281,23.411182699999998
793,Vælta,Greece,24400,village,37.1022975,21.626198600000002
794,Vælta,Estonia,,village,58.483306000000006,23.144035100000004
795,Vælta,Estonia,,neighbourhood,58.4739584,23.1460035
796,Vælta,Brazil,03021-000,hardware,-23.5374219,-46.5992891
797,Vælta,Albania,9425,hotel,40.0524774,19.816413
798,Vælta,Estonia,94320,building,58.402465,22.820734100000003
799,Vælta,Estonia,78250,building,59.0275955,24.479380399999997
800,Vælta,Estonia,94522,bus_stop,58.490345700000006,23.1175815
801,Vælta,Norway,,city,60.640609999999995,12.27683
802,Washington,USA,20500,city,38.894893200000006,-77.0365529
803,Washington,USA,,state,38.8936613,-76.9878833
804,Washington,USA,,state,47.2868352,-120.2126139
805,Washington,USA,,county,38.3662806,-89.4201902
806,Washington,USA,,county,39.788747799999996,-97.0917391
807,Washington,USA,,county,40.19437979999999,-80.2541251
808,Washington,USA,,county,43.2294536,-73.4471343
809,Wien,Austria,1010,city,48.2083537,16.372504199999998
810,Wien,Austria,,state,48.2202097,16.371216
811,Wien,Austria,3002,river,48.209001799999996,16.2156899
812,Wien,USA,,village,44.9019105,-90.02457509999999
813,Wien,Germany,83334,village,47.7767011,12.722551600000001
814,Wien,USA,,village,39.660861499999996,-92.78435870000001
815,Wien,Australia,4735,aerodrome,-22.363024499999998,143.08313130000002
816,Wien,Austria,WIEN,neighbourhood,48.229732,16.392240599999997
817,Wien,Colombia,,neighbourhood,5.6820387000000006,-73.0207974
818,Wien,Serbia,11000,cafe,44.794593799999994,20.466786199999998
819,Wisconsin,USA,,state,44.4308975,-89.6884637
820,Wisconsin,USA,85730,road,32.198889,-110.8237017
821,Wisconsin,USA,52802,road,41.487107,-90.64963
822,Wisconsin,USA,78342,road,27.644534399999998,-98.0813905
823,Wisconsin,USA,78596,road,26.1464438,-97.96168829999999
824,Wisconsin,USA,48858,road,43.60172,-84.7788927
825,Wisconsin,USA,53005-5918,road,43.039423,-88.14201899999999
826,Wisconsin,Philippines,1556,road,14.599998699999999,121.05432079999999
827,Wisconsin,USA,54537,road,45.5318178,-90.5841515
828,Wisconsin,Chile,7630000,road,-33.3913404,-70.5568665
829,Aabakken,Denmark,6000,road,55.4816463,9.5169393
830,Aas,France,64460,city,43.288886700000006,-0.08868989999999999
831,Aas,France,64440,village,42.9811701,-0.4017275
832,Aas,Norway,1488,farm,60.1308747,10.8379581
833,Aas,RSA,7395,road,-33.011546,17.9195397
834,Aas,Denmark,9830,building,57.34269329999999,10.0949985
835,Aas,Denmark,9870,building,57.494076,10.17152
836,Aas,Austria,9710,building,46.65246629999999,13.681521300000002
837,Aas,Norway,4760,bus_stop,58.331738,8.276099
838,Aas,France,76100,building,49.4354435,1.0618092
839,Aas,Mexico,80349,fuel,24.8130777,-107.6509855
840,Fredrikstad,Norway,,county,59.18620129999999,10.8680241
841,Fredrikstad,Norway,1608,city,59.2181661,10.9297606
842,Fredrikstad,Norway,,farm,60.5165,10.532
843,Fredrikstad,Norway,,farm,60.066265,10.8118668
844,Fredrikstad,Norway,,road,63.21151329999999,10.9919957
845,Fredrikstad,Norway,,road,60.613775,10.834939
846,Fredrikstad,Norway,1606,station,59.208992599999995,10.950307
847,Fredrikstad,Norway,1606,building,59.208898100000006,10.950579800000002
848,Hardanger,Norway,0287,village,59.9053968,10.6792306
849,Hardanger,Norway,5600,information,60.3704517,6.104862000000001
850,Hardanger,Norway,,state,60.166669999999996,6.0
851,Stokmarknes,Norway,8455,city,68.5619325,14.9077614
852,Levanger,Norway,,county,63.69645179999999,11.2238804
853,Levanger,Norway,7600,city,63.74620329999999,11.2998629
854,Levanger,Norway,7600,railway,63.7447218,11.300685699999999
855,Levanger,Netherlands,4141MV,road,51.8890013,5.099548
856,Levanger,Montenegro,85347,restaurant,42.4588391,18.515489300000002
857,Vadsø,Norway,,county,70.2267198,29.7827793
858,Vadsø,Norway,9800,city,70.0745265,29.752505100000004
859,Vadsø,Denmark,,water,56.486799899999994,8.8732175
860,Vadsø,Norway,9800,ferry_terminal,70.0709104,29.736059499999996
861,Florø,Norway,6906,city,61.5998581,5.0320356
862,Florø,Brazil,69100-000,stadium,-3.1358007999999997,-58.4436897
863,Florø,Spain,23600,village,37.7018842,-3.9950661
864,Florø,Norway,6906,ferry_terminal,61.60156920000001,5.0274684
865,Florø,Japan,〒111-0032,florist,35.7132139,139.7937915
866,Haugesund,Norway,5525,city,59.41548050000001,5.263646400000001
867,Haugesund,Norway,,county,59.4682478,5.0827612
868,Haugesund,Norway,5527,ferry_terminal,59.41181160000001,5.2681184000000005
869,Haugesund,Norway,,information,59.13726679999999,5.5907325
870,Holmestrand,Norway,,county,59.5556434,10.073108900000001
871,Holmestrand,Norway,3080,city,59.4899583,10.3150445
872,Holmestrand,Norway,,county,59.5837488,10.234392
873,Holmestrand,Norway,3084,station,59.4901464,10.310724699999998
874,Holmestrand,Norway,6829,bus_stop,61.744816,5.933103
875,Hammerfest,Norway,,county,70.80294350000001,23.3018328
876,Hammerfest,Norway,9600,city,70.6636329,23.6791211
877,Hammerfest,Norway,,county,70.4079728,24.026153100000002
878,Hammerfest,Italy,38050,road,46.0417061,11.4167502
879,Elverum,Norway,,county,60.9728025,11.7344421
880,Elverum,Norway,2408,city,60.88296329999999,11.560238400000001
881,Elverum,Norway,,village,69.059986,19.510935500000002
882,Elverum,Norway,5462,farm,59.9128389,5.7933889
883,Elverum,Norway,1870,farm,59.4932694,11.695169400000001
884,Elverum,Norway,3089,village,59.513402799999994,10.2110722
885,Elverum,Norway,,farmyard,59.7665707,11.1239793
886,Elverum,Norway,2406,railway,60.8829542,11.5460413
887,Elverum,Norway,9300,road,69.2347697,18.0169551
888,Elverum,Norway,,road,69.02123990000001,18.803774899999997
889,Bryne,Norway,4344,city,58.733308799999996,5.6503502999999995
890,Bryne,Norway,4560,farm,58.097105500000005,6.6956217
891,Bryne,Norway,4340,railway,58.734725100000006,5.649678
892,Bryne,Norway,4560,neighbourhood,58.095076299999995,6.6931046
893,Bryne,Norway,,neighbourhood,58.0975892,6.7026459
894,Horten,Norway,,county,59.4104486,10.443491400000001
895,Horten,Norway,3181,city,59.416645900000006,10.4838599
896,Horten,Norway,,village,59.370075,9.4870222
897,Horten,Norway,5746,village,60.98969,7.0825708
898,Horten,Austria,3442,village,48.3071195,15.989880900000001
899,Horten,Norway,3187,ferry_terminal,59.4121428,10.4893796
900,Horten,Sweden,84030,water,62.395998,14.716227800000002
901,Horten,Norway,2372,bus_stop,60.988817000000004,10.533339999999999
902,Horten,Germany,58452,department_store,51.4384078,7.335833999999999
903,Brevik,Norway,3960,city,59.0528886,9.699978
904,Brevik,USA,,village,47.083011,-94.2885863
905,Brevik,Sweden,,village,59.213614,18.3858743
906,Brevik,Norway,1407,village,59.7524111,10.711891699999999
907,Brevik,Norway,1555,village,59.5027241,10.6890562
908,Brevik,Sweden,,village,58.435950399999996,14.422915300000001
909,Brevik,Sweden,139 60,village,59.29019470000001,18.587408
910,Brevik,Sweden,430 81,village,57.6354113,11.8074683
911,Brevik,Sweden,130 55,farm,59.076584,18.3938421
912,Brevik,Sweden,,village,59.249570299999995,16.7829564
913,Kongsberg,Norway,,county,59.594550100000006,9.670860099999999
914,Kongsberg,Norway,3613,city,59.6693196,9.6515097
915,Kongsberg,USA,,village,47.851392700000005,-100.8012554
916,Kongsberg,Sweden,74010,village,59.875183299999996,18.048078
917,Kongsberg,Norway,,village,59.0465556,8.1100444
918,Kongsberg,Norway,,farm,59.27966850000001,10.858312199999999
919,Kongsberg,Norway,1860,farm,59.6614583,11.335666699999999
920,Kongsberg,Norway,1623,farm,59.2757556,10.8624222
921,Kongsberg,Norway,3617,road,59.6717428,9.638797
922,Kongsberg,United Kingdom,WF6 1TN,building,53.7050874,-1.3916128
923,Mandal,Norway,4514,city,58.0268181,7.4534801999999996
924,Mandal,Mongolia,,county,48.8236651,107.0727499
925,Mandal,Norway,,county,57.95288789999999,7.5118203999999995
926,Mandal,India,311403,city,25.4418507,74.5673975
927,Mandal,Mongolia,,city,48.821021,106.496347
928,Mandal,India,425408,village,21.2914897,74.5833365
929,Mandal,India,,village,21.0707437,74.8698416
930,Mandal,India,,village,21.2795111,74.3464121
931,Mandal,India,,village,30.4604135,79.2743358
932,Mandal,India,382130,village,23.2883831,71.9178854
933,Hamar,Norway,,county,61.001493700000005,11.1647964
934,Hamar,Russia,443028,city,53.198627,50.113987
935,Hamar,Yemen,,county,15.75,42.566666999999995
936,Hamar,Norway,2317,city,60.795596700000004,11.0746049
937,Hamar,Iceland,620,peak,65.93315,-18.5114108
938,Hamar,United Kingdom,ZE2 9TW,village,60.761608100000004,-0.8230625
939,Hamar,USA,,village,47.8436098,-98.57343759999999
940,Hamar,Yemen,,village,14.216667000000001,46.65
941,Hamar,Algeria,,village,36.3047164,2.97629
942,Hamar,Norway,2116,farm,60.2397988,11.8337324
943,Otta,Norway,2670,city,61.7712098,9.5394379
944,Otta,Norway,2695,river,62.00431460000001,7.6410908
945,Otta,Norway,2670,river,61.786286,9.460869800000001
946,Otta,Norway,,river,61.9630818,7.895347800000001
947,Otta,Norway,2693,river,61.9453594,7.956129300000001
948,Otta,Norway,2680,river,61.865850300000005,9.1961129
949,Otta,Norway,,river,61.754702,11.1162015
950,Otta,Nigeria,,village,6.6666669999999995,3.733333
951,Otta,Nigeria,,village,6.7260155,3.9996997000000003
952,Otta,Nigeria,2340,village,6.6841355,3.232745
953,Svolvær,Norway,8301,city,68.2347719,14.564735999999998
954,Svolvær,Norway,8301,ferry_terminal,68.23074179999999,14.566538699999999
955,Tvedestrand,Norway,,county,58.5662265,9.2122951
956,Tvedestrand,Norway,4900,city,58.62262020000001,8.931291400000001
957,Tvedestrand,Norway,4900,picnic_site,58.626501,8.9245986
958,Hønefoss,Norway,3510,city,60.1666996,10.255085300000001
959,Hønefoss,Norway,,village,59.715626,7.5764981
960,Hønefoss,Norway,3510,station,60.1692786,10.2490896
961,Hønefoss,Norway,3510,railway,60.169064399999996,10.2486027
962,Finmarken,Denmark,8883,road,56.229766399999995,9.7330374
963,Finmarken,Denmark,3390,road,55.948406299999995,11.8610519
964,Finmarken,Denmark,6000,road,55.472401299999994,9.4891479
965,Finmarken,Norway,,county,59.9,10.08333
966,Munchen,Germany,,county,48.1371079,11.575382199999998
967,Munchen,Germany,92268,village,49.5560714,11.580791
968,Munchen,Germany,,village,48.6964776,13.463154300000001
969,Munchen,Germany,04938,village,51.6066028,13.3125927
970,Munchen,Germany,99438,neighbourhood,50.869975700000005,11.2535193
971,Munchen,Czechia,40702,village,50.7228392,14.0768839
972,Munchen,Russia,127051,restaurant,55.7662975,37.6262693
973,Munchen,Greece,84600,car_rental,37.4236926,25.323782100000003
974,Munchen,Spain,09004,road,42.34284279999999,-3.6981957999999997
975,Munchen,Germany,81241,building,48.1452811,11.4817737
976,Grekenland,Greece,,country,38.995368299999996,21.987713199999998
977,Belgien,Belgium,,country,50.6402809,4.666714499999999
978,Belgien,Norway,,farm,59.405911100000004,8.4309222
979,Italien,Italy,,country,42.6384261,12.674297
980,Italien,Italy,,country,41.7035189,14.1885946
981,Italien,United Arab Emirates,,islet,25.222178200000002,55.1653704
982,Italien,France,38100,building,45.1601835,5.7266154
983,Italien,Belgium,7860,restaurant,50.71516389999999,3.8283587
984,Italien,Sweden,33153,building,57.1853708,14.021591899999999
985,Italien,Cuba,69400,restaurant,22.533182800000002,-78.3480964
986,Italien,Italy,39100,road,46.5003777,11.3528959
987,Italien,Thailand,83100,cafe,7.817721400000001,98.3006364
988,Peru,Peru,,country,-6.8699697,-75.0458515
989,Peru,Peru,,country,-10.1391354,-76.272253
990,Peru,USA,61354,city,41.3272919,-89.1287636
991,Peru,USA,46970,city,40.7536528,-86.0688811
992,Peru,USA,12972,city,44.578486,-73.52703100000001
993,Peru,USA,,city,42.4381417,-73.04593390000001
994,Peru,USA,16801-7307,village,40.8547842,-77.7666667
995,Peru,USA,,city,40.481446000000005,-95.73079200000001
996,Peru,USA,,village,44.5699747,-89.24344599999999
997,Peru,USA,44847:44857,village,41.1700539,-82.64240009999999
998,Afrika,,,unknown,11.5024338,17.7578122
999,Afrika,Sweden,24334,village,55.9247661,13.599883300000002
1000,Afrika,Czechia,76314,village,49.276128299999996,17.7222564
1001,Afrika,Sweden,,islet,59.614241099999994,17.7218388
1002,Afrika,Germany,79292,village,47.935216,7.7630909
1003,Afrika,Germany,32791,village,52.0124691,8.7986164
1004,Afrika,Germany,,neighbourhood,53.1149421,13.822564000000002
1005,Afrika,Sweden,618 33,village,58.6464469,16.315959799999998
1006,Afrika,Norway,4609,village,58.1831647,8.1458053
1007,Afrika,Russia,,village,53.32880600000001,53.551973
1008,Australien,Australia,,country,-24.7761086,134.755
1009,Australien,United Arab Emirates,,islet,25.2314775,55.19435079999999
1010,Australien,Germany,30175,recreation_ground,52.381946500000005,9.7725384
1011,Australien,Germany,69115,building,49.4012636,8.670012
1012,Australien,Netherlands,6372PW,attraction,50.8824311,6.0291242
1013,Kina,PRC,,country,35.000074,104.999927
1014,Kina,Israel,,stream,31.223363800000005,35.186845700000006
1015,Kina,Israel,,stream,31.173814500000002,35.178541499999994
1016,Kina,Indonesia,,village,-1.5040276000000001,111.1542953
1017,Kina,DR Congo,,village,-8.1641988,27.034495899999996
1018,Kina,Norway,5743,village,60.8208,7.1245
1019,Kina,Sweden,,village,59.1227647,16.5660095
1020,Kina,Sweden,,village,65.0745892,18.9471698
1021,Kina,Egypt,,city,26.1615051,32.7182974
1022,Kina,Lithuania,13146,river,54.646793599999995,25.5947268
1023,Egypten,Egypt,,country,26.254049300000002,29.2675469
1024,Egypten,Germany,28870,village,53.081396999999996,9.112720699999999
1025,Egypten,Germany,27801,village,52.95867560000001,8.365047599999999
1026,Egypten,Denmark,5466,village,55.47685210000001,9.9361061
1027,Egypten,Sweden,533 74,village,58.5979709,13.430496599999998
1028,Egypten,Sweden,,neighbourhood,59.68954179999999,17.8663981
1029,Egypten,Germany,27801,archaeological_site,52.95803000000001,8.3609215
1030,Egypten,Germany,06317,road,51.5028152,11.704844900000001
1031,Egypten,Germany,06198,road,51.501583399999994,11.7092587
1032,Egypten,Germany,28876,road,53.080820200000005,9.1125839
1033,Japan,Japan,,country,36.5748441,139.2394179
1034,Japan,USA,18221,village,40.9925844,-75.91019940000001
1035,Japan,USA,,village,38.239215,-91.3059819
1036,Japan,Indonesia,59353,village,-6.686250599999999,110.91526470000001
1037,Japan,Indonesia,,village,-7.4685938,110.2836227
1038,Japan,Indonesia,63741,village,-7.8523629,111.48999509999999
1039,Japan,Indonesia,61318,village,-7.497030199999999,112.4168439
1040,Japan,Montenegro,,village,42.6906715,19.7177593
1041,Japan,Liberia,,village,6.595510000000001,-10.42908
1042,Japan,Liberia,,village,6.7903199999999995,-10.05969
1043,Østen,Germany,21756,city,53.695497200000005,9.185742800000002
1044,Østen,Poland,62-100,village,52.7506949,17.181287100000002
1045,Østen,Slovakia,049 52,peak,48.5383375,20.4947103
1046,Østen,Germany,84329,village,48.367088200000005,12.744406199999998
1047,Østen,Germany,,village,48.3560062,12.9234825
1048,Østen,Germany,93098,village,48.9468428,12.2262741
1049,Østen,Germany,84384,village,48.3728277,12.9960964
1050,Østen,Austria,6441,village,47.1591506,10.9145874
1051,Østen,Bulgaria,4400,neighbourhood,42.19063320000001,24.3488109
1052,Østen,Germany,83730,neighbourhood,47.7633425,11.9240329
1053,Amerika,USA,,country,39.7837304,-100.4458825
1054,Amerika,Czechia,40336,peak,50.792305,14.027582999999998
1055,Amerika,Czechia,273 51,village,50.079911700000004,14.0998927
1056,Amerika,Czechia,25901,village,49.630501,14.6563885
1057,Amerika,Czechia,26214,village,49.6572109,14.249603099999998
1058,Amerika,Germany,26446,village,53.462991599999995,7.817566800000001
1059,Amerika,Czechia,51231,village,50.5627864,15.51733
1060,Amerika,Czechia,54701,village,50.404327,16.1882193
1061,Amerika,Czechia,50366,village,50.110925,15.561534400000001
1062,Amerika,Croatia,,village,46.4355079,16.2711988
1063,Valdres,Norway,0287,village,59.906181000000004,10.682806800000002
1064,Valdres,Spain,,village,36.0664707,-5.5746849
1065,Valdres,Norway,,farm,59.31217779999999,11.2859528
1066,Valdres,Norway,,county,60.916669999999996,9.16667
1067,Spitsbergen,Norway,,region,78.3110023,17.2297973
1068,Spitsbergen,Norway,,state,78.71985190000001,20.3493328
1069,Spitsbergen,Netherlands,9636,village,53.175709999999995,6.83436
1070,Spitsbergen,Netherlands,2721GN,road,52.055023,4.5364485
1071,Spitsbergen,Netherlands,1339SJ,road,52.4010665,5.308082700000001
1072,Spitsbergen,Netherlands,1339SL,road,52.40109,5.30887
1073,Spitsbergen,Netherlands,1339SZ,road,52.4010213,5.307983
1074,Spitsbergen,Netherlands,1339SK,road,52.4006513,5.3093969
1075,Brasil,Brazil,,country,-10.333333300000001,-53.2
1076,Brasil,Costa Rica,10906,city,9.936217,-84.2239353
1077,Brasil,Cuba,,city,21.8235519,-77.9566011
1078,Brasil,Brazil,,village,-4.513304,-71.67280799999999
1079,Brasil,Brazil,,village,3.5580692000000003,-61.1315219
1080,Brasil,Brazil,,village,-9.133307,-68.58465699999999
1081,Brasil,Colombia,,village,5.1389315,-75.2829991
1082,Brasil,Mexico,,village,24.9427546,-99.76391629999999
1083,Brasil,Peru,,village,-7.543582000000001,-78.4474468
1084,Brasil,Mexico,,village,28.4366667,-111.15833329999998
1085,New Zealand,New Zealand,,country,-41.5000831,172.83440769999999
1086,New Zealand,United Arab Emirates,,islet,25.2387785,55.2004568
1087,New Zealand,Canada,,village,46.4099904,-62.31304300000001
1088,New Zealand,United Kingdom,DE22 3GL,neighbourhood,52.9257201,-1.4993393999999998
1089,New Zealand,United Kingdom,,neighbourhood,51.8102011,-0.367708
1090,New Zealand,United Kingdom,SK11 0SR,road,53.15329200000001,-2.0553156
1091,New Zealand,Philippines,8023,road,7.0502997999999995,125.5605489
1092,New Zealand,Philippines,1711,road,14.478264800000002,121.0323513
1093,New Zealand,Philippines,3019BING© 2,road,14.7877827,121.0271725
1094,New Zealand,United Kingdom,SN11 9JL,village,51.497232000000004,-1.9838755000000001
1095,Portugal,Portugal,,country,40.0332629,-7.889626299999999
1096,Portugal,Portugal,,peak,37.400512299999995,-8.3156107
1097,Portugal,France,,village,44.7973195,0.5946528
1098,Portugal,Brazil,,village,-21.5534483,-42.809858399999996
1099,Portugal,Brazil,,village,-1.6292632,-45.2368151
1100,Portugal,Spain,38130,village,28.5594256,-16.218878
1101,Portugal,Colombia,,village,6.2592713,-74.7819072
1102,Portugal,Peru,,village,-3.4496611000000006,-72.6677114
1103,Portugal,Bolivia,,village,-12.5717334,-65.14346970000001
1104,Portugal,Panama,,village,8.2285341,-81.6745762
1105,Spania,Spain,,country,39.3262345,-4.838064900000001
1106,Spania,Greece,,peak,39.6799929,21.1076445
1107,Spania,Slovakia,032 23,peak,49.1772222,19.4801655
1108,Spania,Slovakia,08642,village,49.212149700000005,21.2739617
1109,Spania,Slovakia,038 04,village,49.0462054,18.902072399999998
1110,Spania,Slovakia,956 33,village,48.612811,18.2542814
1111,Spania,Slovakia,03482,road,49.14562539999999,19.404602800000003
1112,Cordilleras,United Kingdom,DL11 7LZ,farm,54.428824,-1.8538531000000003
1113,Cordilleras,Colombia,,village,4.8937323,-73.1911582
1114,Cordilleras,Mexico,45039,neighbourhood,20.6705456,-103.42027309999999
1115,Cordilleras,Mexico,,neighbourhood,25.6556079,-100.44446190000001
1116,Cordilleras,Peru,15028,road,-12.0142349,-77.05349059999999
1117,Cordilleras,Mexico,54750,road,19.6399343,-99.22042059999998
1118,Cordilleras,Philippines,653,road,10.3739994,123.9251197
1119,Cordilleras,Philippines,6001,road,10.3805149,123.9225805
1120,Polen,Poland,,country,52.215933,19.134422
1121,Polen,Czechia,,city,49.4249686,13.1767464
1122,Polen,USA,,village,39.86730120000001,-80.5039624
1123,Polen,USA,,village,40.8849895,-94.39607
1124,Polen,Netherlands,9909TK,village,53.412980000000005,6.858739999999999
1125,Polen,Germany,67152,village,49.3846375,8.1997047
1126,Polen,Denmark,,village,55.3876426,10.713624699999999
1127,Polen,Sweden,195-93,village,59.717161499999996,18.091800199999998
1128,Polen,Colombia,,village,5.0760567000000005,-73.3074276
1129,Polen,Poland,82-550,village,53.7001407,19.2091415
1130,Sydafrika,RSA,,country,-28.816623600000003,24.991639000000003
1131,Prærien,Norway,8008,neighbourhood,67.2751361,14.4121529
1132,Prærien,Denmark,,village,56.11617879999999,9.6591353
1133,Prærien,Norway,3870,village,59.18907779999999,8.08735
1134,Prærien,Norway,8004,road,67.2737458,14.399265900000001
1135,Prærien,Norway,3870,road,59.190296999999994,8.0876759
1136,Prærien,Norway,2580,road,62.130095,9.994433500000001
1137,Prærien,Denmark,7200,road,55.765322399999995,8.904454199999998
1138,Prærien,Norway,,neighbourhood,64.46833000000001,11.476560000000001
1139,Steppen,Germany,95448,attraction,49.9234626,11.5868881
1140,Venezia,Italy,,city,45.437190799999996,12.3345898
1141,Venezia,Italy,,county,45.4551205,12.2503791
1142,Venezia,Argentina,,neighbourhood,-38.9371145,-68.223095
1143,Venezia,USA,,village,34.3930821,-112.4168345
1144,Venezia,Italy,,village,45.4963582,10.2355882
1145,Venezia,Italy,,village,44.605030600000006,9.7908054
1146,Venezia,Argentina,8316,neighbourhood,-38.937473600000004,-68.22301759999999
1147,Venezia,USA,,neighbourhood,28.4162021,-81.4851396
1148,Venezia,USA,,road,29.4330798,-98.7497709
1149,Lyon,France,69630,road,45.6963425,4.7359480000000005
1150,Lyon,France,,city,45.75781370000001,4.8320114
1151,Lyon,USA,,county,38.4573987,-96.1683124
1152,Lyon,USA,,county,44.388073299999995,-95.8287296
1153,Lyon,USA,,county,36.9981232,-88.0658149
1154,Lyon,USA,,county,43.3747071,-96.2081917
1155,Lyon,France,,county,45.6963425,4.7359480000000005
1156,Lyon,USA,,county,38.9887898,-119.18220420000002
1157,Lyon,USA,,village,38.511717499999996,-91.17403940000001
1158,Lyon,USA,,city,34.2178865,-90.5420429
1159,Kairo,Egypt,,city,30.048819,31.243665999999997
1160,Kairo,India,,county,23.440195000000003,84.842377
1161,Kairo,Uganda,,village,2.7551923,30.8785136
1162,Kairo,Sweden,19491,village,59.5220328,17.8458551
1163,Kairo,Japan,,village,37.110405,138.6569581
1164,Kairo,Mexico,85000-85059,road,27.5579776,-109.9454189
1165,Kairo,Switzerland,3013,restaurant,46.9586597,7.446391800000001
1166,Kairo,Finland,48100,restaurant,60.469191200000004,26.942605600000004
1167,Kairo,Japan,905-0206,restaurant,26.6849837,127.8779057
1168,Kairo,Kenya,,city,-0.6,36.86667
1169,Suezkanalen,Egypt,,canal,30.412419500000002,32.3583412
1170,Suezkanalen,Egypt,43211,village,29.9313913,32.5627779
1171,Panama,Panama,,country,8.559559,-81.1308434
1172,Panama,Panama,0833-0293,city,8.9714493,-79.53418020000001
1173,Panama,Panama,,county,9.1947795,-79.4308667
1174,Panama,USA,93313,village,35.266906,-119.05677069999999
1175,Panama,Panama,,state,8.7034679,-79.06942459999999
1176,Panama,USA,62077,city,39.0294908,-89.52425290000001
1177,Panama,Sri Lanka,,city,6.7566659,81.8045802
1178,Panama,USA,,city,42.075056,-79.48310500000001
1179,Panama,USA,,village,41.706439200000005,-85.1074684
1180,Panama,USA,64779,village,38.0469765,-94.3549502
1181,Dakota,USA,,county,44.666655,-93.044911
1182,Dakota,USA,,county,42.4049316,-96.5677015
1183,Dakota,USA,10023,attraction,40.7767749,-73.975911
1184,Dakota,Netherlands,50000,city,12.5143164,-70.02127709999999
1185,Dakota,USA,,city,43.9138856,-91.3598478
1186,Dakota,Czechia,25401,village,49.8616344,14.465153099999998
1187,Dakota,USA,,village,31.776011999999998,-83.69322509999999
1188,Dakota,USA,26588,village,39.5136951,-80.1353546
1189,Dakota,USA,,city,42.38862720000001,-89.526227
1190,Dakota,USA,,village,43.9902492,-89.35641820000001
1191,Serbien,Serbia,,country,44.153412100000004,20.55144
1192,Serbien,Russia,,village,45.1770762,38.1966717
1193,Serbien,Indonesia,,village,-1.0022271,134.8409566
1194,Serbien,USA,,village,30.127717600000004,-96.9988725
1195,Serbien,Ukraine,89030,village,49.0078634,22.817354100000003
1196,Serbien,Serbia,,road,44.02432279999999,21.0765743
1197,Flandern,Belgium,,state,51.0962462,4.1798513
1198,Judea,Colombia,,village,4.9599384,-74.47736979999999
1199,Judea,Chile,,village,-34.3613283,-71.1124635
1200,Judea,New Zealand,3110,neighbourhood,-37.6956662,176.1487548
1201,Judea,Colombia,,village,2.5217682999999997,-75.7331162
1202,Judea,USA,00761,neighbourhood,18.2630417,-66.7082685
1203,Judea,Chile,1240000,road,-23.6306315,-70.3758428
1204,Judea,Chile,4650000,road,-37.8158933,-72.6853407
1205,Judea,Philippines,1708,road,14.489525899999999,121.0058637
1206,Judea,Chile,,road,-34.0725725,-70.7361034
1207,Judea,Chile,9252307,road,-33.5400039,-70.7705666
1208,Tyrkia,Turkey,,country,38.959759399999996,34.9249653
1209,Ungarn,Hungary,,country,47.1817585,19.5060937
1210,Ungarn,Austria,4310,memorial,48.257985999999995,14.4992625
1211,Gaarden,Netherlands,7607ME,road,52.351428799999994,6.660365799999999
1212,Gaarden,Netherlands,7607MK,road,52.3509865,6.661487200000001
1213,Gaarden,Netherlands,7607MC,road,52.351443700000004,6.6605694
1214,Gaarden,Netherlands,7156JW,road,52.0669787,6.569799199999999
1215,Gaarden,Netherlands,7156JV,road,52.0672188,6.569561200000001
1216,Gaarden,Netherlands,7156MR,road,52.0655658,6.56807
1217,Gaarden,Netherlands,7156JX,road,52.0656964,6.5688048
1218,Gaarden,Norway,6530,bus_stop,63.06567,7.593292999999999
1219,Gaarden,Germany,,neighbourhood,54.31182,10.14467
1220,Garmo,Pakistan,,river,28.8118262,69.2741615
1221,Garmo,Norway,2685,village,61.8462711,8.816552
1222,Garmo,Spain,39880,village,43.262041700000005,-3.2382892999999995
1223,Garmo,Norway,,farm,59.3107889,8.1314611
1224,Garmo,Tajikistan,,mountain_pass,38.820175,72.09593890000001
1225,Garmo,Norway,2685,bus_stop,61.84871700000001,8.804067
1226,Garmo,Norway,2677,bus_stop,61.757996,9.284393
1227,Garmo,Germany,48485,toys,52.2265991,7.376377900000001
1228,Garmo,China,,city,31.260540000000002,94.9163
1229,Lom,Italy,,state,45.6209,9.768892999999998
1230,Lom,Bulgaria,,county,43.7817685,23.1932391
1231,Lom,Norway,,county,61.71821679999999,8.4346935
1232,Lom,Cameroon,,river,5.8436793,14.1475769
1233,Lom,Czechia,,city,49.410445,13.9889872
1234,Lom,Czechia,,city,49.3628533,14.628306599999998
1235,Lom,Bulgaria,,river,43.6984166,23.047393399999997
1236,Lom,Italy,38035,peak,46.3769866,11.7167976
1237,Lom,Slovenia,,peak,46.117945299999995,14.3352405
1238,Lom,Slovenia,5243,peak,46.178141100000005,14.0016239
1239,Narvik,Norway,,county,68.28792840000001,17.657742199999998
1240,Narvik,Norway,8501,city,68.4396792,17.426652
1241,Narvik,Norway,,county,68.2456415,16.8723225
1242,Narvik,Norway,,farm,58.7456184,9.1441449
1243,Narvik,Poland,30-436,road,50.0025892,19.919241699999997
1244,Narvik,Poland,30-437,road,50.0013623,19.9107855
1245,Narvik,Chile,7550000,road,-33.4054227,-70.5661215
1246,Narvik,Argentina,X5166,road,-31.053917,-64.4891778
1247,Narvik,Sweden,115 41,road,59.3482963,18.1095109
1248,Harstad,Norway,,county,68.9297383,16.520913500000002
1249,Harstad,Norway,9406,city,68.8012505,16.5201176
1250,Harstad,Norway,3330,farm,59.822503000000005,9.861414
1251,Harstad,Norway,2233,farm,59.9293671,11.9914731
1252,Harstad,Norway,2223,farm,60.1877073,11.890704800000002
1253,Harstad,Norway,,village,59.3864667,11.4218
1254,Harstad,Norway,4747,farm,59.19553620000001,7.529412799999999
1255,Harstad,Norway,7092,neighbourhood,63.3519678,10.3854559
1256,Harstad,Norway,,bus_stop,60.92596999999999,10.056478
1257,Harstad,Norway,9415,information,68.7395215,16.5595545
1258,Sørlandet,Norway,,village,66.870553,13.858892
1259,Sørlandet,Norway,,state,58.5,7.5
1260,Skandinavien,Sweden,,neighbourhood,58.77150279999999,17.031311499999997
1261,Skandinavien,Germany,24983,road,54.778555299999994,9.3312287
1262,Skandinavien,Germany,24983,road,54.7773429,9.3335494
1263,Skandinavien,Germany,23812,road,53.954943799999995,10.197476400000001
1264,Skandinavien,Germany,20095,building,53.54934029999999,9.9935756
1265,Skandinavien,Finland,00100,building,60.167970999999994,24.932499
1266,Skandinavien,Germany,26123,travel_agency,53.14695579999999,8.217990499999999
1267,Skandinavien,Germany,12203,garden,52.456482900000005,13.302821
1268,Skandinavien,Germany,12203,garden,52.4565882,13.303038800000001
1269,Skandinavien,Germany,15230,fast_food,52.3432844,14.550703500000001
1270,Gudbrandsdalen,Norway,,farm,59.672766700000004,11.067341699999998
1271,Gudbrandsdalen,Norway,,road,61.6653215,9.6512058
1272,Gudbrandsdalen,Norway,0689,road,59.8575507,10.890020800000002
1273,Gudbrandsdalen,Norway,,road,66.5172,13.316214000000002
1274,Gudbrandsdalen,Norway,,road,61.582900699999996,9.8344149
1275,Molde,Norway,,county,62.7509137,7.3547744999999995
1276,Molde,Norway,6413,city,62.7378836,7.1589568
1277,Molde,Norway,6475,county,62.6949746,6.7519034
1278,Molde,Norway,,county,62.5915539,8.1416674
1279,Molde,Germany,52382,village,50.8576255,6.4675294999999995
1280,Molde,Germany,59379,bus_stop,51.660078600000006,7.495439200000001
1281,Molde,Portugal,2500-568,building,39.4194804,-9.16681
1282,Molde,Norway,6413,road,62.737951100000004,7.1655803
1283,Molde,Norway,6413,ferry_terminal,62.734856799999996,7.157072299999999
1284,Molde,Norway,6413,ferry_terminal,62.736894400000004,7.1675012
1285,Danzig,Poland,,city,54.347629000000005,18.645232399999998
1286,Danzig,Poland,,county,54.361433999999996,18.6282185
1287,Danzig,USA,,village,46.1380296,-99.474836
1288,Danzig,Sweden,,village,58.93158689999999,15.5118584
1289,Danzig,Sweden,,neighbourhood,58.59226339999999,16.1952694
1290,Danzig,Netherlands,8052BT,road,52.4823368,6.0533033
1291,Danzig,Philippines,1718,road,14.4606515,121.0102844
1292,Danzig,Netherlands,2511CV,pub,52.0810207,4.3157651
1293,Danzig,Germany,23730,road,54.073817500000004,10.7737379
1294,Haag,Netherlands,,neighbourhood,52.0749456,4.269680200000001
1295,Haag,Austria,3350,city,48.110135,14.580985
1296,Haag,Austria,6842,city,47.320168100000004,9.6198615
1297,Haag,Germany,63867,peak,50.044810600000005,9.1102025
1298,Haag,Germany,97799,peak,50.32172070000001,9.7172741
1299,Haag,Austria,3350,city,48.11191029999999,14.5650462
1300,Haag,Germany,,city,49.8700965,11.5610943
1301,Haag,Germany,94545,village,48.8382271,13.483522599999999
1302,Haag,Germany,94051,village,48.615356,13.5972095
1303,Petersburg,Russia,190000,city,59.938731999999995,30.316228999999996
1304,Petersburg,USA,,county,37.1924594,-77.36774079999999
1305,Petersburg,USA,99833,city,56.8127965,-132.95547
1306,Petersburg,USA,,county,56.751220700000005,-133.4588406
1307,Petersburg,USA,26847,city,38.9924886,-79.123975
1308,Petersburg,USA,,city,38.4919935,-87.27862440000001
1309,Petersburg,USA,62675,city,40.0117151,-89.8481652
1310,Petersburg,Romania,507190,village,45.706641499999996,25.632262
1311,Petersburg,Slovenia,,city,46.803692100000006,16.218644
1312,Petersburg,Hungary,,neighbourhood,47.448714100000004,19.0111469
1313,Atlanta,USA,,city,33.749098700000005,-84.39018490000001
1314,Atlanta,Canada,,city,45.1513902,-64.50409429999999
1315,Atlanta,USA,75551,city,33.116213099999996,-94.16634930000001
1316,Atlanta,USA,,village,38.708725,-75.67798509999999
1317,Atlanta,USA,,city,40.2596504,-89.23324659999999
1318,Atlanta,USA,,village,39.561451,-83.1904672
1319,Atlanta,USA,14808,village,42.5542347,-77.4724875
1320,Atlanta,USA,,village,38.465232799999995,-114.3313794
1321,Atlanta,USA,,village,33.7984483,-89.1475657
1322,Atlanterhavet,,,unknown,13.581921,-38.320312
1323,Atlanterhavet,Norway,,county,58.688559999999995,7.12868
1324,Bayern,Germany,,state,48.9467562,11.4038717
1325,Bayern,Germany,,village,47.7952468,12.533989300000002
1326,Bayern,France,68580,village,47.528915999999995,7.187680099999999
1327,Bayern,Germany,66111,road,49.23176779999999,7.010932700000001
1328,Bayern,United Kingdom,CO13 0JB,building,51.835933600000004,1.2108691
1329,Bayern,Germany,63825,road,50.1131828,9.252525
1330,Bayern,Germany,83224,bus_stop,47.795337200000006,12.5339171
1331,Bayern,Japan,〒049-5731,restaurant,42.55538370000001,140.8622176
1332,Bayern,PRC,215300,restaurant,31.378009600000002,120.97029270000002
1333,Bayern,Uzbekistan,111700,cafe,41.4569223,69.55353149999999
1334,Marseille,France,13000,city,43.2961743,5.3699525
1335,Marseille,France,,county,43.3015041,5.5480032999999995
1336,Marseille,France,,village,44.4376097,0.9356249
1337,Marseille,France,,village,43.6239848,1.8841326
1338,Marseille,France,24390,village,45.2369682,1.1887809999999999
1339,Marseille,France,31560,village,43.336551799999995,1.6533668000000001
1340,Marseille,France,22150,village,48.3005645,-2.7574964
1341,Marseille,France,47170,village,43.9978163,0.10220189999999998
1342,Marseille,France,24120,village,45.0709686,1.3887402
1343,Marseille,France,32200,village,43.5880684,0.8167475000000001
1344,London,United Kingdom,SW1A 2DX,city,51.5073219,-0.1276474
1345,London,United Kingdom,,county,51.4893335,-0.14405510000000002
1346,London,United Kingdom,,county,51.514947,-0.0930461
1347,London,Canada,N6A 3M8,city,42.988576,-81.246643
1348,London,Canada,,county,42.953765399999995,-81.22915290000002
1349,London,USA,40741,city,37.1289771,-84.08326459999999
1350,London,USA,,village,43.0477775,-89.0128881
1351,London,USA,43140,city,39.886449299999995,-83.44825300000001
1352,London,USA,,village,36.4760619,-119.44317849999999
1353,London,USA,,city,35.328973,-93.2529553
1354,Ohio,USA,,state,40.225356899999994,-82.6881395
1355,Ohio,USA,,county,37.475769799999995,-86.85606390000001
1356,Ohio,USA,,county,40.098477100000004,-80.6109467
1357,Ohio,USA,,county,38.948049600000004,-84.9581728
1358,Ohio,Canada,,city,44.395462200000004,-66.0134125
1359,Ohio,USA,,city,41.5575349,-89.46092759999999
1360,Ohio,USA,,village,31.539325899999998,-98.08614320000001
1361,Ohio,USA,13324,village,43.32243,-74.9786
1362,Ohio,USA,,village,38.1555828,-93.8518811
1363,Asien,,,unknown,51.2086975,89.2343748
1364,Asien,Netherlands,,city,52.9953538,6.560553
1365,Asien,Spain,,city,42.283691,-1.0466465
1366,Asien,Germany,29693,village,52.744673399999996,9.6050861
1367,Asien,Sweden,,village,60.0330605,14.3364473
1368,Asien,Czechia,405 02,peak,50.798638000000004,14.119138000000001
1369,Asien,Bulgaria,,village,43.031196,24.2017665
1370,Asien,Philippines,,village,16.514135800000002,120.57875359999998
1371,Asien,Bulgaria,6148,village,42.6554604,25.195970199999998
1372,Asien,Cameroon,,village,2.8880651000000004,13.251099900000002
1373,Kansas,USA,,state,38.27312,-98.58218719999999
1374,Kansas,USA,,village,39.3314396,-86.0324933
1375,Kansas,USA,,village,36.4528231,-86.3805473
1376,Kansas,USA,42069,village,36.9017227,-88.7283855
1377,Kansas,USA,,village,33.8581591,-92.9882233
1378,Kansas,USA,05252,village,43.0578554,-73.1309395
1379,Kansas,USA,,city,36.205085100000005,-94.7977277
1380,Kansas,USA,44841,village,41.2450533,-83.2846453
1381,Kansas,USA,,city,39.55281289999999,-87.93947790000001
1382,Kansas,USA,,city,33.9017737,-87.5519582
1383,Kanans land,Sweden,,village,56.82935229999999,16.1074744
1384,Guinea,Guinea,,country,10.7226226,-10.7083587
1385,Guinea,Canada,,city,44.6571781,-65.5895844
1386,Guinea,USA,,village,38.1440893,-77.43911240000001
1387,Guinea,Mexico,92061,stream,20.9603169,-97.7487213
1388,Guinea,Ghana,,city,5.15,-1.75
1389,Guinea,Spain,48800,peak,43.2095217,-3.2292209
1390,Guinea,Spain,,neighbourhood,42.850853,-3.0169446
1391,Guinea,Spain,01426,village,42.8536197,-3.0151101000000002
1392,Guinea,USA,25474,village,32.9437366,-87.6511191
1393,Gaustad,Norway,0372,neighbourhood,59.9485848,10.717618400000001
1394,Gaustad,Norway,6494,village,62.9838826,7.307536099999999
1395,Gaustad,Norway,1626,farm,59.26145,10.773888900000001
1396,Gaustad,Norway,,farm,58.2872694,7.091361099999999
1397,Gaustad,Norway,,farmyard,59.9496321,10.722034800000001
1398,Gaustad,Norway,,village,62.9838667,7.3296864
1399,Gaustad,Norway,5919,road,60.5736789,5.175165799999999
1400,Gaustad,Norway,0373,station,59.9460976,10.710358
1401,Gaustad,Norway,0374,bus_stop,59.94622,10.712508
1402,Gaustad,Norway,0349,bus_stop,59.945533,10.715945
1403,Quebec,Canada,,state,52.4760892,-71.8258668
1404,Quebec,Canada,,city,46.8259601,-71.23522259999999
1405,Quebec,United Kingdom,DE45 1PP,stream,53.222829000000004,-1.6123786
1406,Quebec,Canada,G1K 3X2,station,46.8183175,-71.21435179999999
1407,Quebec,DR Congo,,neighbourhood,-11.6853373,27.4798695
1408,Quebec,Canada,,county,46.8421455,-71.33113929999999
1409,Quebec,United Kingdom,GU31 5PA,village,50.9861782,-0.8924529
1410,Quebec,USA,,village,30.510703200000002,-104.39964300000001
1411,Quebec,USA,,village,36.759561,-81.5028925
1412,Quebec,USA,06239,village,41.7992653,-71.8878499
1413,New Orleans,USA,,city,29.949932300000004,-90.0701156
1414,New Orleans,USA,70113,station,29.946166499999997,-90.0784417
1415,New Orleans,Barbados,,neighbourhood,13.104116699999999,-59.619023600000006
1416,New Orleans,Colombia,,village,9.6383934,-74.6123319
1417,New Orleans,Netherlands,3072 MD,building,51.9049161,4.487450900000001
1418,New Orleans,RSA,7646,neighbourhood,-33.715531,18.9869513
1419,New Orleans,Netherlands,0000AA,neighbourhood,12.1347808,-68.8618249
1420,New Orleans,USA,77650,road,29.424473,-94.69386899999999
1421,New Orleans,Philippines,1700,road,14.487906099999998,121.0090422
1422,New Orleans,Philippines,1111,road,14.627223,121.04540049999999
1423,Niam-Niam,Moldova,,retail,46.83862070000001,29.6596174
1424,Niam-Niam,Ukraine,79002,convenience,49.8758713,23.9343975
1425,Niam-Niam,Russia,644000,cafe,55.0339658,73.2672408
1426,Niam-Niam,Russia,634034,cafe,56.460999699999995,84.9644532
1427,Niam-Niam,Russia,634034,cafe,56.4600598,84.967203
1428,Niam-Niam,Ukraine,58012,fast_food,48.29702279999999,25.9286337
1429,Niam-Niam,Russia,650021,convenience,55.347589600000006,86.0073348
1430,Niam-Niam,Kazakhstan,140006,bakery,52.292016700000005,76.9687833
1431,Niam-Niam,Russia,618400,fast_food,59.4088797,56.8505586
1432,Niam-Niam,Kazakhstan,110000,convenience,53.2389629,63.6276834
1433,Baltimore,USA,21203,city,39.2908816,-76.610759
1434,Baltimore,USA,,county,39.2847494,-76.6204746
1435,Baltimore,Mali,277,city,12.649319,-8.000337
1436,Baltimore,Ireland,P81 RH93,village,51.483320899999995,-9.3732052
1437,Baltimore,USA,43105,city,39.84534179999999,-82.6007185
1438,Baltimore,USA,13087,village,42.7353458,-76.1257596
1439,Baltimore,Canada,K9A 4J9,village,44.0183887,-78.1474808
1440,Baltimore,USA,37727:37843,village,35.9842662,-83.0593197
1441,Baltimore,USA,,village,36.687558100000004,-88.80588900000001
1442,Baltimore,USA,28434,village,34.4365586,-78.4402834
1443,Nevada,USA,,state,39.515882500000004,-116.85372269999999
1444,Nevada,USA,,county,39.3540335,-120.80898429999999
1445,Nevada,USA,,county,33.6413476,-93.3055491
1446,Nevada,USA,64772,city,37.838110799999995,-94.35961850000001
1447,Nevada,Serbia,,neighbourhood,43.2101513,21.179005899999996
1448,Nevada,Spain,,peak,39.680324299999995,-4.5719971
1449,Nevada,USA,50201,city,42.022765299999996,-93.45243420000001
1450,Nevada,USA,,village,41.0858658,-88.5514518
1451,Nevada,USA,,village,37.696463,-84.9096772
1452,Nevada,USA,,village,32.5240295,-90.4681507
1453,Pennsylvania,USA,,state,40.9699889,-77.72788309999999
1454,Pennsylvania,USA,36572,village,30.8713577,-88.0482706
1455,Pennsylvania,United Arab Emirates,,islet,25.2136226,55.1539254
1456,Pennsylvania,USA,,neighbourhood,32.3116471,-106.78733590000002
1457,Pennsylvania,United Kingdom,EX4 6DZ,neighbourhood,50.7407652,-3.5218654000000003
1458,Pennsylvania,United Kingdom,CF,road,51.5147536,-3.1546923
1459,Pennsylvania,USA,48375-1739,road,42.4766561,-83.4701255
1460,Pennsylvania,USA,48376-9998,road,42.476145200000005,-83.470957
1461,Pennsylvania,USA,34974,road,27.2070424,-80.8285621
1462,Pennsylvania,USA,64755,road,37.338453,-94.308439
1463,California,USA,,state,36.7014631,-118.75599740000001
1464,California,USA,,city,40.0657724,-79.8918436
1465,California,Colombia,,city,2.9067539,-76.4732713
1466,California,USA,65018,city,38.628683,-92.5659635
1467,California,United Arab Emirates,,city,25.2029945,55.1437622
1468,California,Colombia,,neighbourhood,10.945929699999999,-74.826135
1469,California,Argentina,X5000,neighbourhood,-31.4510961,-64.20552310000001
1470,California,El Salvador,,city,13.442523399999999,-88.4618665
1471,California,Brazil,,city,-23.6672543,-51.355455600000006
1472,California,Argentina,,neighbourhood,-33.3849771,-60.220441799999996
1473,Landvik,Norway,,farm,59.0268694,8.514133300000001
1474,Landvik,Norway,3870,village,59.174768500000006,8.0879083
1475,Landvik,Norway,4886,village,58.3409757,8.5227256
1476,Landvik,Norway,4934,village,58.595867299999995,8.8407617
1477,Landvik,Norway,3855,road,59.0262505,8.515733
1478,Landvik,Norway,,road,59.0259493,8.5125243
1479,Mleti,Georgia,,city,42.43196,44.49455
1480,Ananur,Russia,425468,village,57.271001399999996,49.1705243
1481,Ananur,Georgia,,city,42.16583,44.70139
1482,Kreml,Russia,300000,attraction,54.1950973,37.6203201
1483,Kreml,France,57410,village,49.028993799999995,7.342942
1484,Kreml,Russia,420111,station,55.795151000000004,49.107105600000004
1485,Kreml,Austria,9500,building,46.60787070000001,13.8530908
1486,Kreml,Germany,02779,building,50.896288299999995,14.663766199999998
1487,Kreml,Germany,65623,arts_centre,50.289520700000004,8.063409599999998
1488,Kreml,Switzerland,8840,pub,47.1260504,8.744682000000001
1489,Persien,Germany,26919,road,53.34551170000001,8.4793094
1490,Persien,Germany,95448,attraction,49.9241329,11.5862975
1491,Persien,Bulgaria,5930,road,43.65205170000001,25.129534200000002
1492,Orienten,Denmark,,building,55.70799670000001,12.5956779
1493,Armenia,Armenia,,country,40.7696272,44.6736646
1494,Armenia,Colombia,,county,4.4926654,-75.7398135
1495,Armenia,Colombia,,city,4.9742346,-75.7495483
1496,Armenia,Colombia,630004100,city,4.536307,-75.6723751
1497,Armenia,Colombia,,city,6.1561777,-75.7870472
1498,Armenia,USA,,village,34.7684705,-81.2928684
1499,Armenia,Mexico,,village,16.178611,-97.082222
1500,Armenia,Philippines,,village,12.2531921,123.7436294
1501,Armenia,Ecuador,,village,0.06958339999999999,-78.6943722
1502,Armenia,Ecuador,,village,-0.4788327,-77.0705442
1503,Rostov,Russia,,city,47.22138579999999,39.7114196
1504,Rostov,Russia,,city,57.1860127,39.424955700000005
1505,Rostov,Tajikistan,,stream,37.16690139999999,72.26490720000001
1506,Rostov,Ukraine,41200,village,51.960522,33.74485
1507,Rostov,Bulgaria,1324,road,42.723765500000006,23.2701223
1508,Rostov,Greece,38222,road,39.3628583,22.964271399999998
1509,Rostov,Russia,344011,hostel,47.22405,39.6889839
1510,Rostov,Bolivia,00020,doctors,-16.5575921,-68.19707109999999
1511,Rostov,Russia,,state,47.44032,41.08083
1512,Sibir,Russia,,county,60.0,100.0
1513,Sibir,Russia,,village,62.0717316,40.2045718
1514,Sibir,Russia,,stream,44.161855100000004,40.0969968
1515,Sibir,Russia,618430,village,59.264591599999996,56.8464586
1516,Sibir,Czechia,35135,village,50.221576899999995,12.3558116
1517,Sibir,Russia,614505,village,58.251575,56.2403096
1518,Sibir,Russia,,village,54.3972409,92.164375
1519,Sibir,Russia,,village,57.8122056,51.343999999999994
1520,Sibir,Russia,,village,58.4696988,49.3619225
1521,Sibir,Russia,,village,51.6897369,81.11371559999999
1522,Odessa,Ukraine,65026,city,46.4873195,30.7392776
1523,Odessa,Ukraine,,county,46.4858883,30.683651
1524,Odessa,USA,19730,city,39.457334,-75.6613184
1525,Odessa,USA,,city,31.845714899999997,-102.367687
1526,Odessa,USA,,village,28.183221999999997,-82.55402790000001
1527,Odessa,Canada,K0H 2H0,village,44.276984000000006,-76.722712
1528,Odessa,USA,31546,village,31.557716999999997,-81.8201137
1529,Odessa,USA,68861,village,40.701678,-99.256761
1530,Odessa,Canada,S0G 3S0,village,50.283486700000005,-103.7857921
1531,Odessa,Ukraine,,state,46.75,30.25
1532,Batum,Georgia,,county,41.6187958,41.622769899999994
1533,Batum,Georgia,6004,city,41.650950200000004,41.6360085
1534,Batum,USA,,village,47.233478600000005,-118.810277
1535,Sortehavet,,,unknown,43.0,34.0
1536,Konstantinopel,Turkey,34126,city,41.0096334,28.9651646
1537,Ganges,India,249304,river,25.6052693,83.7038469
1538,Ganges,France,34190,city,43.935142,3.7070719
1539,Ganges,United Arab Emirates,,canal,25.2279991,55.18663589999999
1540,Ganges,India,,river,25.616571,81.4464603
1541,Ganges,India,246732,river,29.6660708,78.15640079999999
1542,Ganges,India,,river,25.2122,82.6554
1543,Ganges,USA,98926,county,47.004464299999995,-120.53758529999999
1544,Ganges,Austria,9611,peak,46.6018347,13.652567000000001
1545,Ganges,USA,44878,village,40.9061669,-82.56128299999999
1546,Ganges,USA,,village,42.5776057,-86.2100128
1547,Kvæfjord,Norway,,county,68.6875552,16.0922263
1548,Kvæfjord,Norway,,village,58.042378799999994,7.315286599999999
